id,name,address,town,zip,phone,email,email_type,website,linkedin,rubric,lat,lng,averageNote,maxNote,nbReviews,linkedinFname,linkedinLname,linkedinHeadline,linkedinCompany,linkedinPhoto,linkedinConnections,linkedinCheck
"50adb64384ae2742a004dd47","Black Scan","4 r Motte","Vern sur Seiche","35770","02 99 32 15 95","dominique@blackscan.com","pro","-","-","Imprimerie et travaux graphiques",48.059579,-1.603796,1,5,1,"-","-","-","-","-","-","-"
"50ad34ed84ae7287a21cbbc0","Graphie Couleurs SARL","16 r Leuzieres","Saint Erblon","35230","02 99 86 98 98","graphie@graphie-couleurs.com","pro","http://www.graphie-couleurs.com","-","Imprimerie et travaux graphiques",48.024207,-1.654542,5,5,1,"-","-","-","-","-","-","-"
"5beb1e4f0351d130e656715e","Ocopa Emballage","av Orgerblon","Orgères","35230","02 99 14 81 33","c.astic@astic-emballage.com","pro","http://www.ocopa-emballage.com","-","Imprimerie et travaux graphiques",48.012790629,-1.664021259,"-","-","-","-","-","-","-","-","-","-"
"5503ce21e4b0bb736374fbf1","4B Numérique","26 r Passavent","Vern sur Seiche","35770","02 30 96 32 72","4bnumerique@4bpackaging.fr","pro","http://www.4bpackaging.fr","-","Imprimerie et travaux graphiques",48.061303,-1.62407,"-","-","-","-","-","-","-","-","-","-"
"50acecec84ae9c6b733ffb80","Kala","L'Écotay","Nouvoitou","35410","02 99 37 64 64","-","-","http://www.kala.fr","-","Imprimerie et travaux graphiques",48.040122641,-1.536222273,"-","-","-","-","-","-","-","-","-","-"
"673ffe1b9c29834d26ffde26","Apcv","21 Rue de Bel-Air","Janzé","35150","02 99 47 78 09","-","-","-","-","Imprimerie et travaux graphiques",47.95537174,-1.502956234,"-","-","-","-","-","-","-","-","-","-"
"50acd79084aec628abe6c259","Imprimerie du Rimon SAS","11 r Bintinais","Noyal Châtillon sur Seiche","35230","02 99 53 85 54","devis.imp.du.rimon@wanadoo.fr","non-pro","http://www.imprimeur-rennes.fr","-","Imprimerie et travaux graphiques",48.076812606,-1.663096514,"-","-","-","-","-","-","-","-","-","-"
"5beb19e40351d130e6566939","Identic","r Carrière","Cesson Sévigné","35510","02 99 26 10 10","contact@identic.com","pro","http://www.identic.com","-","Imprimerie et travaux graphiques",48.109166,-1.61371,5,5,2,"-","-","-","-","-","-","-"
"5f5ab41c3fd32a3a430fc2f6","Publicité Concept","17 Avenue de Ouessant","Bruz","35170","09 53 44 79 12","publiciteconcept@orange.fr","non-pro","-","-","Imprimerie et travaux graphiques",48.02497473,-1.765225732,5,5,3,"-","-","-","-","-","-","-"
"5532d74ae4b004f8a2d47097","Zebratex","10 r Fernand Forest","Ploërmel","56800","02 97 70 18 63","contact@zebratex.fr","pro","http://www.zebratex.fr","-","Imprimerie et travaux graphiques",47.930997,-2.379651,4,5,2,"-","-","-","-","-","-","-"
"4f43a94ee4b0d09889009203","ARTEK Dynadoc - RapidoPub","28 r Erbonière","Cesson Sévigné","35510","02 99 32 08 32","services@artekrepro.fr","pro","https://www.artekrepro.fr","-","Imprimerie et travaux graphiques",48.103129,-1.624394,5,5,8,"-","-","-","-","-","-","-"
"5d87ffb054c4c060f39df5bd","Copyroom","22 r St Melaine","Rennes","35000","02 99 63 40 29","-","-","https://copyroom.fr/","-","Imprimerie et travaux graphiques",48.114821,-1.677117,1,5,3,"-","-","-","-","-","-","-"
"533fe0afe4b095142b455571","Emroad","19 r Bas Village","Cesson Sévigné","35510","06 52 64 07 82","contact@emroad.com","pro","https://www.emroad.com","-","Imprimerie et travaux graphiques",48.102582,-1.62493,5,5,7,"-","-","-","-","-","-","-"
"659b04fe6f66912a1478eb08","Kennedy photocopie","12 crs Kennedy","Rennes","35000","02 99 59 44 02","contact@kcopy.fr","pro","-","-","Imprimerie et travaux graphiques",48.121339,-1.70685,5,5,10,"-","-","-","-","-","-","-"
"61989b6caf5a8508c864ec83","Signarama Rennes","Rue de Melesse","Montreuil-le-Gast","35520","02 99 45 00 70","rennes.nord@signarama.fr","pro","https://www.signarama-rennes.fr","-","Imprimerie et travaux graphiques",48.245357047,-1.719548538,5,5,1,"-","-","-","-","-","-","-"
"54f6b48fe4b0abbe9ecd50ba","3d Imprime, impression 3D","26 r Antrain","Rennes","35700","09 52 61 23 60","contact@3dimprime.fr","pro","http://www.3dimprime.fr","-","Imprimerie et travaux graphiques",48.115493,-1.678887,5,5,2,"-","-","-","-","-","-","-"
"50acd7ed84aec628abe6c4c2","Arc-en-Ciel Imprimeurs SARL","2 Rue Théodore Levannier","Lécousse","35133","02 99 94 25 26","c.travers@labbe.fr","pro","http://imprimerielabbesarl.site-solocal.com","-","Imprimerie et travaux graphiques",48.362257004,-1.229756256,"-","-","-","-","-","-","-","-","-","-"
"50b0c36884ae8e854511ec7b","Rouaud Studio","3 Rue Haute","Val-d'Izé","35450","07 80 99 97 69","contact@rouaudstudio.fr","pro","http://www.rouaudstudio.fr","-","Imprimerie et travaux graphiques",48.181049865,-1.316351907,"-","-","-","-","-","-","-","-","-","-"
"50acd79384aec628abe6c276","Imprimerie Régnier","2 r Chalotais","Chantepie","35135","02 99 41 48 73","imprimerie.regnier@wanadoo.fr","non-pro","http://imprimerie-regnier.e-monsite.com","-","Imprimerie et travaux graphiques",48.085307818,-1.622936706,"-","-","-","-","-","-","-","-","-","-"
"60817afb8f932b63093efa64","Imprimerie Garlan","98 bd Edmond Roussin","Fougères","35300","02 99 99 53 06","imprimerie.garlan@gmail.com","non-pro","-","-","Imprimerie et travaux graphiques",48.345271,-1.194259,"-","-","-","-","-","-","-","-","-","-"
"50ae6a4f84ae27795074bd85","Publi 7","8 r Briqueterie","Vitré","35500","02 99 75 31 03","contact@publi7.fr","pro","-","-","Imprimerie et travaux graphiques",48.109396448,-1.210326194,"-","-","-","-","-","-","-","-","-","-"
"50ad354384ae7287a21cbea1","Recto Verso","8 Rue d'Ouessant","Saint-Grégoire","35760","02 99 68 77 22","contact@rectoverso35.fr","pro","http://www.rectoverso35.fr","-","Imprimerie et travaux graphiques",48.159530451,-1.690784971,"-","-","-","-","-","-","-","-","-","-"
"5dd7769854c4c0764a00894f","Dyfuz","15 r Loges","Chantepie","35135","02 99 41 62 92","dyfuz@orange.fr","non-pro","-","-","Imprimerie et travaux graphiques",48.088187104,-1.624463132,"-","-","-","-","-","-","-","-","-","-"
"50ad4e1384ae94e005840759","Imprimerie Pierre","av Gén de Gaulle","Guer","56380","02 97 22 01 23","imprimeriepierre@wanadoo.fr","non-pro","http://imprimeriepierre.site-solocal.com","-","Imprimerie et travaux graphiques",47.908258,-2.114974,"-","-","-","-","-","-","-","-","-","-"
"50b16b8e84ae79bfdb40650a","Lamifilm","r Courtil du Vivier","Melesse","35520","02 99 66 57 11","comptawalcorp@orange.fr","non-pro","http://www.lamifilm.com","-","Imprimerie et travaux graphiques",48.187770236,-1.723170495,"-","-","-","-","-","-","-","-","-","-"
"50af392584ae4c8cdadafd0d","Armenia Graphic","3 pl Verdun","Pipriac","35550","02 99 41 80 66","contact@armeniagraphic.fr","pro","-","-","Imprimerie et travaux graphiques",47.808492246,-1.946287689,"-","-","-","-","-","-","-","-","-","-"
"644cd6b12c91114641f418d1","Hirundo Fab","16 r Tisserands","Montauban de Bretagne","35360","07 87 69 55 05","contact@hirundofab.fr","pro","-","-","Imprimerie et travaux graphiques",48.195654994,-2.030528756,"-","-","-","-","-","-","-","-","-","-"
"50ad326984ae7287a21ca7a4","Kartenn","10 Rue des Aulnes","Saint-Gilles","35590","02 99 64 68 54","contact@kartenn.eu","pro","-","-","Imprimerie et travaux graphiques",48.156082488,-1.820463715,"-","-","-","-","-","-","-","-","-","-"
"50ad055d84aea0f519fe562d","Le Colibri Imprimeur","17 r Oseraie","Cesson Sévigné","35510","02 23 35 50 51","contact@imp-colibri.fr","pro","https://colibri-imprimeur.fr/","-","Imprimerie et travaux graphiques",48.104616,-1.624968,"-","-","-","-","-","-","-","-","-","-"
"50ad852f84aee0e51f5753f3","Ipo Imprimerie","8 b Rue Édouard Branly","Bruz","35170","02 99 52 60 23","imp.ipo@wanadoo.fr","non-pro","http://www.imprimerie-ipo-rennes.fr/","-","Imprimerie et travaux graphiques",48.035760993,-1.725450169,"-","-","-","-","-","-","-","-","-","-"
"50ad356b84ae7287a21cbfd2","Bourgeois Publicité","all Cerisaie","Saint Grégoire","35760","02 99 63 44 13","bourgeois-publicite@wanadoo.fr","non-pro","-","-","Imprimerie et travaux graphiques",48.138179,-1.69014,"-","-","-","-","-","-","-","-","-","-"
"5beaed1f0351d130e6560ab7","AZ & DEP Publicité Sérigraphie","6 Rue des Frères Lumière","Noyal-sur-Vilaine","35530","02 99 41 81 04","contact@az-dep.com","pro","http://www.az-dep.com/","-","Imprimerie et travaux graphiques",48.10583877,-1.525370845,"-","-","-","-","-","-","-","-","-","-"
"53c81cdce4b05c124b45331a","Gmt Etiquettes","2 r Henri Guillaumet","Saint Jacques de la Lande","35136","02 99 60 41 42","goetiq@goetiquettes.com","pro","http://www.goetiquettes.com","-","Imprimerie et travaux graphiques",48.074967,-1.719839,"-","-","-","-","-","-","-","-","-","-"
"56aa13619191b069d2382fba","Imprimerie Auclerc","r Val de Rance","Dinan","22100","02 96 39 73 69","imprimerie-auclerc@wanadoo.fr","non-pro","-","-","Imprimerie et travaux graphiques",48.473326,-2.046407,"-","-","-","-","-","-","-","-","-","-"
"50ae04d084ae33b58a189f93","Imprimerie A.A.G.I.R","3 Rue Gutenberg","Nozay","44170","02 40 79 34 00","contact@aagir.fr","pro","http://www.aagir.fr","-","Imprimerie et travaux graphiques",47.564467001,-1.616349865,"-","-","-","-","-","-","-","-","-","-"
"678c80832320306d1acf8897","Lx-3d","7 r Balanciers","Betton","35830","06 66 03 30 13","xavier.langlois@lx-3d.fr","pro","https://lx-3d.fr/","-","Imprimerie et travaux graphiques",48.185524774,-1.63138612,"-","-","-","-","-","-","-","-","-","-"
"512a3f9884aea8d43eb3d1f9","Edifix EIRL","7 A r Charmilles","Cesson Sévigné","35510","06 63 60 51 01","edifix35@gmail.com","non-pro","http://edifix.fr/","-","Imprimerie et travaux graphiques",48.103419,-1.620177,"-","-","-","-","-","-","-","-","-","-"
"50acd7c984aec628abe6c3a4","Artisa Imprim","11 r Albert Durand","Fougères","35300","02 99 94 16 00","contact@artisa-imprim.com","pro","http://www.artisa-imprim.com","-","Imprimerie et travaux graphiques",48.35629015,-1.198040469,"-","-","-","-","-","-","-","-","-","-"
"5391bc2ce4b05da9bc405738","Airiplast","1 Place du Maréchal Juin","Rennes","35000","01 39 30 45 83","commercial@airiplast.fr","pro","https://www.airiplast.fr","-","Imprimerie et travaux graphiques",48.105699922,-1.680056286,"-","-","-","-","-","-","-","-","-","-"
"6465dea8a7c3c96c614e8aae","Access Pub Com","14 La Rue Creuse","Servon sur Vilaine","35530","02 23 07 77 44","contact@accesspubcom.fr","pro","http://www.accesspubcom.fr","-","Imprimerie et travaux graphiques",48.126237,-1.469028,"-","-","-","-","-","-","-","-","-","-"
"4d6c3c6cfc692507902e0ed7","Espace Copy SARL","11 Rue d'Antrain","Rennes","35000","02 99 38 00 11","espacecopy@wanadoo.fr","non-pro","http://www.espacecopy.fr","-","Imprimerie et travaux graphiques",48.115162383,-1.679191683,"-","-","-","-","-","-","-","-","-","-"
"5beae38c0351d130e655f392","Imprimerie Création Ploermelaise ICP","zi Lande du Moulin","Ploërmel","56800","02 97 72 39 42","imprimerieicp56@orange.fr","non-pro","http://www.image-in-icp56.com","-","Imprimerie et travaux graphiques",47.937779,-2.381401,"-","-","-","-","-","-","-","-","-","-"
"50ad360a84ae7287a21cc460","Ar'Color","1 r Longues Pierres","Combourg","35270","06 73 35 40 24","stcyrtimbres@gmail.com","non-pro","-","-","Imprimerie et travaux graphiques",48.414031,-1.737319,"-","-","-","-","-","-","-","-","-","-"
"50ad852e84aee0e51f5753eb","Calligraphy Print","ld Rouyardieres","Châteaubourg","35220","02 99 62 41 10","opouchin@calligraphy-print.com","pro","http://www.calligraphy-print.com","-","Imprimerie et travaux graphiques",48.095774,-1.424572,"-","-","-","-","-","-","-","-","-","-"
"5beb16900351d130e656629b","Pixel Publicité","18 Rue de Cassepot","Quévert","22100","06 64 98 01 58","pixel.pub@orange.fr","non-pro","http://www.pixel-publicite.fr","-","Imprimerie et travaux graphiques",48.447685483,-2.070497533,"-","-","-","-","-","-","-","-","-","-"
"50adb2b884ae2742a004c2ca","Atelier Fanik","La Millière","Pluduno","22130","02 96 84 30 17","imprimerie@atelier-fanik.fr","pro","http://www.atelier-fanik.fr/","-","Imprimerie et travaux graphiques",48.525869,-2.25404,"-","-","-","-","-","-","-","-","-","-"
"5beae1930351d130e655eef7","Interfas SAS","22 av Henri Fréville","Rennes","35200","02 23 36 01 50","y.lepenhuizic@interfas.fr","pro","http://www.interfas.fr","-","Imprimerie et travaux graphiques",48.087646043,-1.675049382,"-","-","-","-","-","-","-","-","-","-"
"5beae80c0351d130e655fe0a","Ada","1 r André et Yvonne Meynier","Rennes","35000","02 99 65 10 16","info@adarennes.com","pro","-","-","Imprimerie et travaux graphiques",48.126975,-1.71082,"-","-","-","-","-","-","-","-","-","-"
"683626f60cc2b3273cb62033","Repromedia 35","42 crs Kennedy","Rennes","35000","02 90 09 55 60","alhaj.ali@9business.fr","pro","-","-","Imprimerie et travaux graphiques",48.121489,-1.71191,"-","-","-","-","-","-","-","-","-","-"
"50ae68de84ae27795074b2f6","JMD Etiq' Express","7 Rue Louis Kérautret-Botmel","Rennes","35000","02 99 50 05 50","info@etiqexpress.com","pro","http://www.etiqexpress.com","-","Imprimerie et travaux graphiques",48.092371408,-1.633656794,"-","-","-","-","-","-","-","-","-","-"
"5f3f5031b89c8d321860bafc","Atelier Colorama","117 bd Verdun","Rennes","35000","07 81 81 35 15","ateliercolorama@gmail.com","non-pro","http://www.ateliercolorama.com/","-","Imprimerie et travaux graphiques",48.122339,-1.685897,"-","-","-","-","-","-","-","-","-","-"
"631ad0f62db7702c378fb7cc","Lartisanais","4 r Lieut-Col Dubois","Rennes","35000","07 62 98 89 52","contact@lartisanais.fr","pro","https://lartisanais.fr/","-","Imprimerie et travaux graphiques",48.10693,-1.732864,"-","-","-","-","-","-","-","-","-","-"
"4f43ff38e4b0d0988903978b","Copies Des Lices SARL","10 pl Bas des Lices","Rennes","35000","02 99 35 18 40","copiesdeslices@gmail.com","non-pro","https://copiesdeslices.wixsite.com/rennes","-","Imprimerie et travaux graphiques",48.112510569,-1.685164317,"-","-","-","-","-","-","-","-","-","-"
"50ad9bb084ae15a06d95bbe6","Sacpo Sas","1 imp Briqueterie","Saint Méen le Grand","35290","02 23 43 19 38","contact@sacpo.fr","pro","http://www.sacpo.fr","-","Imprimerie et travaux graphiques",48.191329,-2.198708,"-","-","-","-","-","-","-","-","-","-"
"64ba45d8dc21b55f6a33e372","Bureau Vallée","2 all Rance","Bain de Bretagne","35470","02 30 22 00 55","bv.bain-de-bretagne@bureau-vallee.fr","pro","https://magasins.bureau-vallee.fr/fr/france-33/ille-et-vilaine-35/bain-de-bretagne-35012/bain-de-bretagne-BV524","-","Imprimerie et travaux graphiques",47.855296504,-1.687529304,"-","-","-","-","-","-","-","-","-","-"
"53d3c9b2e4b0cd961525ed31","Décograph","18 r Charmilles","Cesson Sévigné","35510","02 99 00 14 14","contact@decograph-publicite.fr","pro","http://www.decograph-publicite.fr","-","Imprimerie et travaux graphiques",48.101995641,-1.623151934,"-","-","-","-","-","-","-","-","-","-"
"54af8933e4b0a5972df8a403","Cloître Imprimeurs","6 A r Bignon","Rennes","35000","02 99 84 57 57","-","-","http://www.cloitre-imp.fr","-","Imprimerie et travaux graphiques",48.096134297,-1.637029913,"-","-","-","-","-","-","-","-","-","-"
"53e60769e4b0dc2717227e15","Chemin Jean Michel","5 r Moulin Neuf","La Chapelle des Fougeretz","35520","06 04 42 41 77","jmc@cheminjm.fr","pro","https://cheminjm.fr","-","Imprimerie et travaux graphiques",48.178029,-1.735279,"-","-","-","-","-","-","-","-","-","-"
"5beb47940351d130e656b7d0","Creation Factory","1 r Hallouvry","Chantepie","35135","06 95 84 94 90","web@creation-factory.com","pro","http://www.creation-factory.com/","-","Imprimerie et travaux graphiques",48.088648,-1.616865,"-","-","-","-","-","-","-","-","-","-"
"5ec21b8754c4c063bfe89071","Clap3D","3 r Gilbert","Montgermont","35760","06 61 99 11 27","contact@clap3d.fr","pro","http://www.clap3d.fr","-","Imprimerie et travaux graphiques",48.156967883,-1.717474447,"-","-","-","-","-","-","-","-","-","-"
"666515ae58df532405d1bc78","Cirrus 3D Cesson-Sévigné","13 r Bray","Cesson Sévigné","35510","09 83 76 54 12","cirrus3d@gmail.com","non-pro","https://cirrus3d.com/","-","Imprimerie et travaux graphiques",48.105690409,-1.628456056,"-","-","-","-","-","-","-","-","-","-"
"510ae41f84ae62bd3d448001","Bretonne d'Etiquettes SA","imp Théodore Botrel","Pipriac","35550","02 99 34 37 37","contact@sbe-etiquettes.fr","pro","http://www.sbe-etiquettes.fr","-","Imprimerie et travaux graphiques",47.806436,-1.94859,"-","-","-","-","-","-","-","-","-","-"
"665be0c4a64b324e981d1d23","AG solutions créatives","4 Rue de Lorraine","Chantepie","35135","06 07 57 80 49","contact@solutionscreatives.fr","pro","https://www.solutionscreatives.fr","-","Imprimerie et travaux graphiques",48.08845439,-1.612742574,"-","-","-","-","-","-","-","-","-","-"
"50ad319684ae7287a21ca14c","Agence de l'Arc","r Chauminais","Chantepie","35135","06 81 32 62 32","bruno.lafargue@agencedelarc.fr","pro","-","-","Imprimerie et travaux graphiques",48.085809,-1.619448,"-","-","-","-","-","-","-","-","-","-"
"55f4abbfe4b08cb031cb86d0","Hellegouarch Yvon","105 Bis r Eugène Pottier","Rennes","35000","06 21 08 17 32","-","-","-","-","Imprimerie et travaux graphiques",48.10453,-1.705029,"-","-","-","-","-","-","-","-","-","-"
"4d6c1f71fc69250784210dd7","7 Jours","17 qu St Cast","Rennes","35000","02 99 79 39 09","contact@7jours.fr","pro","https://www.7jours.fr/","-","Imprimerie et travaux graphiques",48.111226232,-1.685983138,"-","-","-","-","-","-","-","-","-","-"
"6401ffd0f903d612a9d4e1a3","HephaPrint","100 all St Hélier","Rennes","35000","06 23 17 39 56","info@hephaprint.fr","pro","http://www.hephaprint.fr/","-","Imprimerie et travaux graphiques",48.10560027,-1.665496843,"-","-","-","-","-","-","-","-","-","-"
"5851d4ea0351d1169d334e38","Labgeek3d","10 all Anjela Duval","Gévezé","35850","07 81 32 89 35","labgeek3d@gmail.com","non-pro","-","-","Imprimerie et travaux graphiques",48.224135,-1.803349,"-","-","-","-","-","-","-","-","-","-"
"5b2f35b10351d157b0c4b2a0","Mail Boxes Etc. - Centre MBE 2824","121 Rue de Nantes","Rennes","35000","01 41 90 12 10","-","-","-","-","Imprimerie et travaux graphiques",48.100299052,-1.685923826,"-","-","-","-","-","-","-","-","-","-"
"6823716489231c499c0afd17","Mail Boxes Etc. - Centre MBE 3306","20 Rue de Bray","Cesson-Sévigné","35510","02 23 30 14 17","-","-","http://www.mbefrance.fr/3306","-","Imprimerie et travaux graphiques",48.105740781,-1.627603404,"-","-","-","-","-","-","-","-","-","-"
"5109ef7484aecdaecd2c1d4f","Imprimerie Auclerc","586 Rue de la Tramontane","Taden","22100","02 96 39 73 69","contact@imprimerieauclerc.com","pro","http://www.imprimerieauclerc.com","-","Imprimerie et travaux graphiques",48.474080883,-2.04631947,"-","-","-","-","-","-","-","-","-","-"
"50ae2d6684ae29b8a1edf96a","M S Distribution","Bel Air","Crevin","35320","02 99 77 20 63","contact@ms-distribution.com","pro","http://www.ms-distribution.com","-","Imprimerie et travaux graphiques",47.929378347,-1.677275128,"-","-","-","-","-","-","-","-","-","-"
"6860b0ac9a8e79227f35e685","Des images et des mots","25 av Joseph Ricordel","Redon","35600","02 99 72 99 03","-","-","-","-","Imprimerie et travaux graphiques",47.669579,-2.077835,"-","-","-","-","-","-","-","-","-","-"
"512c001884ae8e44e40cf887","Octopus Conception Graphique","Les Petites Bretonnières","Ernée","53500","09 75 80 22 80","contact@octopus-ernee.com","pro","http://www.octopus-ernee.com","-","Imprimerie et travaux graphiques",48.320544941,-0.92551024,"-","-","-","-","-","-","-","-","-","-"
"50aef68084ae4ded722d4cb1","Robin Claude","27 Bis r Bretagne","Fougerolles du Plessis","53190","02 43 05 53 42","mathi-graph53@hotmail.fr","non-pro","http://www.mathi-graph.fr","-","Imprimerie et travaux graphiques",48.474886,-0.980045,"-","-","-","-","-","-","-","-","-","-"
"50ad369584ae7287a21cc8df","Imprimerie Reuzé SARL","r Irène Joliot Curie","Martigné Ferchaud","35640","02 99 47 95 42","contact@impreuze.fr","pro","http://www.impreuze.fr","-","Imprimerie et travaux graphiques",47.819538135,-1.317985399,"-","-","-","-","-","-","-","-","-","-"
"50ad65d284aea7b535bdde95","Interco Tackotec","11 D r Charmilles","Cesson Sévigné","35510","02 99 37 87 24","contact@interco.fr","pro","http://www.interco.fr","-","Imprimerie et travaux graphiques",48.102479,-1.621978,"-","-","-","-","-","-","-","-","-","-"
"50adbfeb84ae2742a00525af","Imprimerie Castelbriantaise","24 r 8 Mai 1945","Châteaubriant","44110","02 40 81 09 97","contact@impcastel.fr","pro","http://www.impcastel.fr","-","Imprimerie et travaux graphiques",47.708101,-1.383547,"-","-","-","-","-","-","-","-","-","-"
"5b788de00351d17c73ceddb1","Dvlt - Zebbre","av St Vincent","Saint Grégoire","35760","02 23 40 03 22","contact@zebbre.com","pro","http://zebbre.com","-","Imprimerie et travaux graphiques",48.143708,-1.684134,"-","-","-","-","-","-","-","-","-","-"
"66627b90fee8e1337f658cce","Mon Ruban","14 Place de l'Église","Éréac","22250","09 79 52 03 36","contact@mon-ruban.com","pro","https://mon-ruban.com/","-","Imprimerie et travaux graphiques",48.274315771,-2.347006778,"-","-","-","-","-","-","-","-","-","-"
"6369e8c890fec81b13c4f4fa","Eco Imprim","Becihan","Monteneuf","56380","06 30 54 54 48","eco.imprim1@orange.fr","non-pro","-","-","Imprimerie et travaux graphiques",47.86414,-2.190669,"-","-","-","-","-","-","-","-","-","-"
"5ad9bdf40351d1247cdf9825","Brochage 3000","Zone Artisanale de la Girardière","Ahuillé","53940","02 43 69 12 12","info@brochage3000.fr","pro","https://www.brochage3000.fr/?fbclid=IwAR0rb2yXZsdoIlYfjqDu1XDvvhDO_ug9r8molqOS3hOnqY-IEFBDz2SRm2U","-","Imprimerie et travaux graphiques",48.026364277,-0.871602949,"-","-","-","-","-","-","-","-","-","-"
"4d67e449057f25070ccd79ca","Chat Noir Impressions","1 Rue de la Jaunais de Mivoie","Saint-Jacques-de-la-Lande","35136","02 99 35 56 10","contact@chat-noir.fr","pro","http://www.chat-noir.fr","-","Imprimerie et travaux graphiques",48.068929479,-1.702364561,"-","-","-","-","-","-","-","-","-","-"
"4d6c4445fc69250756770ed7","Scann Image Photogravure","8 r Erbonière","Cesson Sévigné","35510","02 99 26 12 00","contact@sous-bocks-factory.com","pro","-","-","Imprimerie et travaux graphiques",48.10444834,-1.627226671,"-","-","-","-","-","-","-","-","-","-"
"5765c7610351d163a6b21878","Atelier Offsprint","18 r Forêt","Thorigné Fouillard","35235","02 23 24 87 61","offsprint35@gmail.com","non-pro","http://offsprint.fr/?fbclid=IwAR3ularxu8KcTvVLjzz6NUGLCnfo1769cYgTWyyOmjcQUT0QDzSHIgc5XEI","-","Imprimerie et travaux graphiques",48.159509,-1.57954,"-","-","-","-","-","-","-","-","-","-"
"690d6fead0e7cc316584c0b7","Mfi","1 r Jean Boucher","Vitré","35500","02 23 55 14 20","mfi@imprimerie-mfi.fr","pro","https://www.calligraphy-print.com/","-","Imprimerie et travaux graphiques",48.106687073,-1.206523983,"-","-","-","-","-","-","-","-","-","-"
"50ad9a6f84ae15a06d95b278","Rapid Imprimerie","Activite Chaussee","Malansac","56220","02 97 66 25 23","contact@rimimprimerie.com","pro","http://www.rimimprimerie.com","-","Imprimerie et travaux graphiques",47.669486772,-2.303083214,"-","-","-","-","-","-","-","-","-","-"
"6823c32c6068c82f37c0ece8","Imprimerie du Guesclin","18 bd Préval","Quévert","22100","02 96 85 96 92","idg22@orange.fr","non-pro","-","-","Imprimerie et travaux graphiques",48.459115,-2.060048,"-","-","-","-","-","-","-","-","-","-"
"562bc5d29191b0730ae6a723","Docuworld Rennes Tirex","14 r Charmilles","Cesson Sévigné","35510","02 99 59 27 26","contact@rennes.docuworld.fr","pro","http://www.docuworld.fr/Agences/Docuworld-Rennes","-","Imprimerie et travaux graphiques",48.103057,-1.622056,"-","-","-","-","-","-","-","-","-","-"
"50ae0a3984ae753f399e2308","Lefrancq Imprimeur","Zone Industrielle de la Ramée","Candé","49440","02 41 94 70 50","-","-","https://lefrancq-imprimeur.fr/contact/","-","Imprimerie et travaux graphiques",47.566666767,-1.033551643,"-","-","-","-","-","-","-","-","-","-"
"50ad4cc384ae94e00583fc5d","Imprim'Ernée Création","25 r Douanier Rousseau","Ernée","53500","02 43 05 16 42","imprim.pouteau@wanadoo.fr","non-pro","http://www.imprimerneecreation.fr","-","Imprimerie et travaux graphiques",48.299851319,-0.92134097,"-","-","-","-","-","-","-","-","-","-"
"50ad34c684ae7287a21cba77","Fertard Imprimerie SARL","52 r Paul Painlevé","Janzé","35150","02 99 47 06 74","-","-","https://www.imprimerie-fertard.fr","-","Imprimerie et travaux graphiques",47.957559617,-1.490510474,"-","-","-","-","-","-","-","-","-","-"
"510f28e784ae421aaa086ede","Imp.hauts de Vilaine Sarl","1 Boulevard Laënnec","Châteaubourg","35220","02 99 00 97 31","-","-","http://www.hautsdevilaine.com","-","Imprimerie et travaux graphiques",48.10237176,-1.413241312,"-","-","-","-","-","-","-","-","-","-"
"50adaa6284ae158e9923e828","Imprimerie LE GALLIARD","5 mail Bourgchevreuil","Cesson Sévigné","35510","02 99 85 64 45","contact@imprimerie-legalliard.com","pro","http://www.imprimerie-legalliard.com","-","Imprimerie et travaux graphiques",48.117806,-1.606411,"-","-","-","-","-","-","-","-","-","-"
"50ad353784ae7287a21cbe4d","Technic Plus Impression","L'Enseigne de l'Abbaye","Betton","35830","02 99 55 74 55","contact@technicplusimpression.fr","pro","-","-","Imprimerie et travaux graphiques",48.1688216,-1.6438805,"-","-","-","-","-","-","-","-","-","-"
"55984cdfe4b086a7854b1dc0","Média Graphic","23 r Veyettes","Rennes","35000","02 99 86 71 86","imprim@media-graphic.fr","pro","http://www.e-media-graphic.com","-","Imprimerie et travaux graphiques",48.096327784,-1.629809697,"-","-","-","-","-","-","-","-","-","-"
"50ad34f684ae7287a21cbc0c","Micro Lynx Photogravure","4 r Hatterie","Rennes","35000","02 99 53 80 73","marketing@microlynx.fr","pro","http://micro-lynx.fr","-","Imprimerie et travaux graphiques",48.100098,-1.630171,"-","-","-","-","-","-","-","-","-","-"
"50ad360384ae7287a21cc42c","Agis","zi Turbaniere","Brécé","35530","02 99 26 97 92","production@agis.tm.fr","pro","-","-","Imprimerie et travaux graphiques",48.108981,-1.50811,"-","-","-","-","-","-","-","-","-","-"
"5650af309191b03ae4fd31fd","Imprimerie De L Horloge EURL","53 r Chevrins","Lanvallay","22100","02 96 39 12 26","info@imprimeriedelhorloge.fr","pro","http://www.imprimeriedelhorloge.com","-","Imprimerie et travaux graphiques",48.452022437,-2.025439292,"-","-","-","-","-","-","-","-","-","-"
"510a1dbd84ae5535cab259f1","Idemia","av Helmstedt","Vitré","35500","-","info@idemia.com","pro","http://idemia.com","-","Imprimerie et travaux graphiques",48.113793,-1.194936,"-","-","-","-","-","-","-","-","-","-"
"50aceeea84ae9c6b734009ec","Blin Jérôme","11 bis Avenue du Général de Gaulle","Ombrée-d'Anjou","49420","02 41 92 52 55","imp.blin@wanadoo.fr","non-pro","http://www.imprimerie-blin.com","-","Imprimerie et travaux graphiques",47.740688827,-1.172020381,"-","-","-","-","-","-","-","-","-","-"
"64c00b599e51b422bb07deea","Presses Du Bocage","Zone Artisanale La Haie","Gorron","53120","02 43 30 31 09","-","-","-","-","Imprimerie et travaux graphiques",48.40276194,-0.802866671,"-","-","-","-","-","-","-","-","-","-"
"50b0d61d84ae699b7fe42a11","Couleur Print","13 all Censerie","Visseiche","35130","06 32 02 46 48","leguen.stephane@orange.fr","non-pro","-","-","Imprimerie et travaux graphiques",47.955623751,-1.304430271,"-","-","-","-","-","-","-","-","-","-"
"510f314684ae21dcb5ea45fc","1000 Et Deux Idees","17 r Théodore Botrel","Boisgervilly","35360","02 99 61 72 47","1000etdeuxidees@sfr.fr","non-pro","-","-","Imprimerie et travaux graphiques",48.166468,-2.065982,"-","-","-","-","-","-","-","-","-","-"
"512c09d184ae6a59983bf651","As Communication","138 bis Rue de la Forêt","Fougères","35300","09 80 48 18 37","contact@as-communication.fr","pro","http://www.as-communication.fr","-","Imprimerie et travaux graphiques",48.35820947,-1.193424188,"-","-","-","-","-","-","-","-","-","-"
"50ae1f7684ae29b8a1ed951d","PLP Peinture Lettres Publicité","1 r Marconi","Montgermont","35760","02 99 68 75 00","regis@plp-35.com","pro","-","-","Imprimerie et travaux graphiques",48.154448,-1.706247,"-","-","-","-","-","-","-","-","-","-"
"55cffbafe4b09ac4b2585683","Reprographie de l'Université de Rennes 1 - Campus Scientifiques de Beaulieu","263 av Gén Leclerc","Rennes","35700","02 23 23 31 95","-","-","http://www.univ-rennes1.fr/imprimerie","-","Imprimerie et travaux graphiques",48.118691281,-1.64532995,"-","-","-","-","-","-","-","-","-","-"
"599f1c880351d1718528bb31","Isalaboare","2 la Boaré","Val d'Oust","56460","02 97 74 61 04","isalaboare@orange.fr","non-pro","-","-","Imprimerie et travaux graphiques",47.870219,-2.369013,"-","-","-","-","-","-","-","-","-","-"
"652754b6d18b1333195c8122","Effervescence","10 Bis r Fernand Forest","Ploërmel","56800","02 97 72 86 89","-","-","-","-","Imprimerie et travaux graphiques",47.930077756,-2.380062513,"-","-","-","-","-","-","-","-","-","-"
"59be4ff00351d105e790716e","D'halluin Aléxis","22 r Maurice de Guérin","Dinan","22100","09 87 18 68 17","-","-","-","-","Imprimerie et travaux graphiques",48.448954,-2.05194,"-","-","-","-","-","-","-","-","-","-"
"50aef50984ae4ded722d4278","Bleu Platine Imprimerie","32 r Jean Monnet","Segré","49500","-","-","-","-","-","Imprimerie et travaux graphiques",47.698120066,-0.861278116,"-","-","-","-","-","-","-","-","-","-"
"57d9c0410351d134944f6e03","Guibert Stéphane","3 ld Petit Bois","Challain la Potherie","49440","09 63 47 41 75","-","-","-","-","Imprimerie et travaux graphiques",47.64072795,-1.053363259,"-","-","-","-","-","-","-","-","-","-"
"65cda12a630e93455939ccff","Lefillatre Fabien","3 all Ile Bannec","Vezin le Coquet","35132","06 50 43 07 53","fabien.lefillatre@gmail.com","non-pro","http://xn--kan-9la.fr","-","Imprimerie et travaux graphiques",48.116712,-1.745502,"-","-","-","-","-","-","-","-","-","-"
"510f36c784ae21dcb5ea4859","Art Henry des Abbayes","33 r Nationale","Fougères","35300","02 99 94 34 31","henrydesabbayes@orange.fr","non-pro","http://editionsdesabbayes.blogspot.com","-","Imprimerie et travaux graphiques",48.35328345,-1.203925197,"-","-","-","-","-","-","-","-","-","-"
"5839c5600351d167d5e529f0","Nimal Gérald","4 la Bahuchais","Tresboeuf","35320","02 99 44 69 69","gerald.nimal35@orange.fr","non-pro","http://www.adlib.fr","-","Imprimerie et travaux graphiques",47.882121,-1.561666,"-","-","-","-","-","-","-","-","-","-"
"5a8a4e1a0351d1375eed5be4","Flament Caroline","37 r Du Guesclin","Thorigné Fouillard","35235","02 23 27 10 95","-","-","-","-","Imprimerie et travaux graphiques",48.158904,-1.586089,"-","-","-","-","-","-","-","-","-","-"
"50af392684ae4c8cdadafd13","Grapheti","1 Rue du Chêne Morand","Cesson-Sévigné","35510","02 99 41 89 00","-","-","http://www.grapheti.com","-","Imprimerie et travaux graphiques",48.100520107,-1.621774246,"-","-","-","-","-","-","-","-","-","-"
"5c96d5110351d1065e698629","G-comm","Limaro","Abbaretz","44170","06 63 59 03 60","contact@g-comm.fr","pro","http://g-comm.fr","-","Imprimerie et travaux graphiques",47.532192751,-1.550450146,"-","-","-","-","-","-","-","-","-","-"
"5d670a4054c4c02bb2f90362","Ubi-flex","1 r Bocage","La Chapelle des Fougeretz","35520","02 23 47 40 25","-","-","-","-","Imprimerie et travaux graphiques",48.191115,-1.732629,"-","-","-","-","-","-","-","-","-","-"
"5bd1354e0351d13102a8be0c","J M Event","Lotissement de Gascaigne","Guémené-Penfao","44290","02 28 05 98 67","-","-","-","-","Imprimerie et travaux graphiques",47.623798202,-1.8261353,"-","-","-","-","-","-","-","-","-","-"
"589bd7500351d167ec4d5165","Laser Edition","6 all Pins","Guichen","35580","09 72 40 20 93","laser.edition@orange.fr","non-pro","-","-","Imprimerie et travaux graphiques",47.976027,-1.792653,"-","-","-","-","-","-","-","-","-","-"
"5901e9690351d1759b7337ed","Lasnier Hervé","1 le Haut Teille","Sacey","50170","02 33 60 29 82","-","-","-","-","Imprimerie et travaux graphiques",48.511043,-1.471567,"-","-","-","-","-","-","-","-","-","-"
"667f94b6b0cc7364ceb29863","Mbb Creations","Vallée","La Bouëxière","35340","09 67 35 78 68","-","-","-","-","Imprimerie et travaux graphiques",48.181823048,-1.48948528,"-","-","-","-","-","-","-","-","-","-"
"57097fe29191b05c17845fb1","Jollivet Pascal","21 r Fer à Cheval","Chavagne","35310","02 99 64 34 16","-","-","-","-","Imprimerie et travaux graphiques",48.058482,-1.785479,"-","-","-","-","-","-","-","-","-","-"
"561542ba9191b05713fcdc26","Edycom","12 le Vauthébault","Pont Rean","35580","06 12 55 08 49","edycom2@hotmail.fr","non-pro","-","-","Imprimerie et travaux graphiques",47.990716135,-1.765084456,"-","-","-","-","-","-","-","-","-","-"
"667f98cbb0cc7364ceb2c164","Ydden","27 Rue Vasco de Gama","Saint-Grégoire","35760","02 90 56 72 93","-","-","-","-","Imprimerie et travaux graphiques",48.155582316,-1.675895012,"-","-","-","-","-","-","-","-","-","-"
"55aac6e0e4b065e913d8ff5f","Guihard Claude","12 r Epinette","Saint Dolay","56130","02 99 90 10 92","-","-","-","-","Imprimerie et travaux graphiques",47.544748,-2.147763,"-","-","-","-","-","-","-","-","-","-"
"56156cd19191b05713fd5ae8","Macaire Delphine","10 r Château","Dinan","22100","02 56 38 51 75","-","-","-","-","Imprimerie et travaux graphiques",48.450105,-2.043776,"-","-","-","-","-","-","-","-","-","-"
"53e60af1e4b0dc2717228d75","Visiographic","ld Petit Bois","Challain la Potherie","49440","06 45 10 44 16","visiographic@hotmail.fr","non-pro","-","-","Imprimerie et travaux graphiques",47.640798,-1.053397,"-","-","-","-","-","-","-","-","-","-"
"59c49e0f0351d15f9fdfb8f8","Martin Anita","2 imp Galetieres","Beignon","56380","09 67 04 21 74","-","-","-","-","Imprimerie et travaux graphiques",47.969504,-2.160996,"-","-","-","-","-","-","-","-","-","-"
"638c3629fe0a150836f78b0f","Graph'ya","8 pl Eglise","Abbaretz","44170","06 49 06 22 14","celia@graphya.fr","pro","-","-","Imprimerie et travaux graphiques",47.552692757,-1.533744642,"-","-","-","-","-","-","-","-","-","-"
"50ad823884aee0e51f5742b2","Imprim'Services","26 Rue Bernard Palissy","Bonchamp-lès-Laval","53960","02 43 53 21 00","contact@diaboloimprimservices.com","pro","http://www.diaboloimprimservices.com","-","Imprimerie et travaux graphiques",48.071947853,-0.721756087,5,5,1,"-","-","-","-","-","-","-"
"50aef6a584ae4ded722d4dab","West'imprim","2 r Ailleres","Azé","53200","02 43 06 33 60","contact@westimprim.fr","pro","http://www.westimprim.fr","-","Imprimerie et travaux graphiques",47.837497,-0.689719,5,5,1,"-","-","-","-","-","-","-"
"50ad4cd584ae94e00583fcea","Editions Resiac","3 Rue des Frères Lemée","Montsûrs","53150","02 43 01 01 26","editions.resiac@gmail.com","non-pro","http://www.resiac.fr","-","Imprimerie et travaux graphiques",48.134674569,-0.551467648,3,5,2,"-","-","-","-","-","-","-"
"50aec15784ae2b311b306377","Ancre Digitale SARL","La Bretonnière","Cancale","35260","02 23 15 11 62","ancredigitale@orange.fr","non-pro","http://www.ancredigitale.com","-","Imprimerie et travaux graphiques",48.678671,-1.872611,"-","-","-","-","-","-","-","-","-","-"
"56f32c499191b04d0a50700b","Couleur Pub","8 r Mare","Saint Coulomb","35350","06 48 19 22 65","laura.guilbaud@couleurpub.fr","pro","http://couleurpub.fr/","-","Imprimerie et travaux graphiques",48.683821,-1.916486,"-","-","-","-","-","-","-","-","-","-"
"50ad435384ae94e00583b3fb","France Location Industrie","Parc d'Activités Pégase","Vaiges","53480","02 43 90 50 74","fli53@orange.fr","non-pro","http://www.fli53.fr","-","Imprimerie et travaux graphiques",48.055567699,-0.491198559,"-","-","-","-","-","-","-","-","-","-"
"50afe4eb84aea0fc96344229","Sbcom","9 av Maine Bazouges","Château Gontier Bazouges","53200","07 87 95 40 38","contact.sbcom@icloud.com","non-pro","http://www.agence-sbcom.fr","-","Imprimerie et travaux graphiques",47.834999372,-0.723395938,"-","-","-","-","-","-","-","-","-","-"
"50ad4ccb84ae94e00583fc96","Scicp Impression et Communication","68 Rue Prosper Brou","Laval","53000","02 43 53 15 64","scicp@scicp.fr","pro","https://www.scicp.fr/","-","Imprimerie et travaux graphiques",48.079871904,-0.765367223,"-","-","-","-","-","-","-","-","-","-"
"50adb8b684ae2742a004f005","Imprimerie Guedon","2 r Abattoir","Grez en Bouère","53290","02 43 70 50 49","devis@imprimeriebardou.com","pro","-","-","Imprimerie et travaux graphiques",47.872678,-0.516973,"-","-","-","-","-","-","-","-","-","-"
"663c404705d92658b777577d","Sc3d","Rue Henri de Toulouse-Lautrec","Château-Gontier-sur-Mayenne","53200","06 80 16 17 39","contact@sc3d.fr","pro","-","-","Imprimerie et travaux graphiques",47.815207734,-0.711865548,"-","-","-","-","-","-","-","-","-","-"
"67834b034e14223dcde6537b","Mail Boxes Etc. - Centre MBE 3038","205 Boulevard des Trappistines","Laval","53000","02 43 02 04 88","-","-","http://www.mbefrance.fr/3038","-","Imprimerie et travaux graphiques",48.06038023,-0.779790449,"-","-","-","-","-","-","-","-","-","-"
"50acefa284ae9c6b73400f76","Pégase Imprimeur","19 r Bruxelles","Laval","53000","02 43 53 15 97","contact@imprimerie-pegase.fr","pro","http://www.imprimerie-pegase.fr","-","Imprimerie et travaux graphiques",48.058352,-0.735648,"-","-","-","-","-","-","-","-","-","-"
"5b3cfd280351d16ade5c56d9","Imprimerie Nouvelle Mainguy Corinne","3 pl Chateaubriand","Dol de Bretagne","35120","02 99 48 01 82","nouvelle.imp@wanadoo.fr","non-pro","-","-","Imprimerie et travaux graphiques",48.550766,-1.751717,"-","-","-","-","-","-","-","-","-","-"
"50ad4cf984ae94e00583fe03","S.t.d.i","12 Rue Gutenberg","Lassay-les-Châteaux","53110","02 43 30 17 00","stdi@stdi.eu","pro","http://www.stdi.eu","-","Imprimerie et travaux graphiques",48.445278594,-0.485698801,"-","-","-","-","-","-","-","-","-","-"
"55981ee2e4b086a7854b0c87","Agir Graphic","96 bd Henri Becquerel","Laval","53000","02 43 67 86 78","-","-","http://www.agir-graphic.fr","-","Imprimerie et travaux graphiques",48.08526148,-0.74597207,"-","-","-","-","-","-","-","-","-","-"
"50ad52c584ae94e005842d70","Créaservices","1 Impasse Lechevrel","Saint-Paul","61100","06 75 47 10 59","creaservices@orange.fr","non-pro","https://creaservices61.fr","-","Imprimerie et travaux graphiques",48.742766769,-0.634181249,"-","-","-","-","-","-","-","-","-","-"
"5eb8ee6754c4c0721ad52127","Arc En Ciel Imprimeurs","20 Cauge","Pontorson","50170","02 33 60 10 61","compta@arcenciel-imprimeurs.com","pro","http://imprimeriemalecot.site-solocal.com","-","Imprimerie et travaux graphiques",48.55450121,-1.498899044,"-","-","-","-","-","-","-","-","-","-"
"512a62a384ae5d158b6aa0df","Lutz Claire","206 r Vieux St Louis","Laval","53000","06 74 03 90 62","clairenoelle.lutz@wanadoo.fr","non-pro","http://emauxetreliures.unblog.fr","-","Imprimerie et travaux graphiques",48.080046258,-0.771889837,"-","-","-","-","-","-","-","-","-","-"
"551f8e72e4b056253c7fd8c3","Elan-C","12 Rue Océane","La Bazoge-Montpinçon","53440","02 43 04 40 42","dspoidvin@gmail.com","non-pro","http://elan-c.fr","-","Imprimerie et travaux graphiques",48.278392049,-0.577551511,"-","-","-","-","-","-","-","-","-","-"
"65a4a4e7f5551a3c63e0cf3c","Imprimerie Moderne","23 Bis Zone de Cromel","Saint Quentin sur le Homme","50220","09 61 56 58 77","-","-","-","-","Imprimerie et travaux graphiques",48.648371248,-1.351300412,"-","-","-","-","-","-","-","-","-","-"
"50ad4cbb84ae94e00583fc1b","Imprimerie Floch Comité Entreprise","778 av Gutenberg","Mayenne","53100","02 43 04 18 40","service-fabrication@imprimeriefloch.fr","pro","https://www.imprimeriefloch.fr","-","Imprimerie et travaux graphiques",48.299372,-0.595467,"-","-","-","-","-","-","-","-","-","-"
"50ada32c84ae158e9923b1a8","Brio Graphic Brochage Routage Industriel de l'Ouest","bd galilee","Changé","53810","02 43 49 59 00","infos@brio-graphic.fr","pro","http://www.brio-graphic.fr","-","Imprimerie et travaux graphiques",48.091101,-0.736835,"-","-","-","-","-","-","-","-","-","-"
"50ad4cbf84ae94e00583fc37","Mp3 Plv","Les 4 Chemins","Martigné sur Mayenne","53470","02 43 02 50 65","commercial@mp3plv.fr","pro","http://www.mp3plv.fr","-","Imprimerie et travaux graphiques",48.205338,-0.6592,"-","-","-","-","-","-","-","-","-","-"
"64bffe599e51b422bb07dae7","Sports Et Publicité","La Gare de la Gouesnière","Saint-Méloir-des-Ondes","35350","02 99 89 15 97","sports-publicite@wanadoo.fr","non-pro","-","-","Imprimerie et travaux graphiques",48.614701855,-1.905647468,"-","-","-","-","-","-","-","-","-","-"
"50ad4cd084ae94e00583fcc1","Imprimerie Futur","17 r Chambrouillere","Bonchamp les Laval","53960","02 43 67 13 07","-","-","http://www.imprimerie-futur.fr","-","Imprimerie et travaux graphiques",48.076314,-0.716616,"-","-","-","-","-","-","-","-","-","-"
"4d6dd958b9eb25071a2fd0c3","Lepetit Imprimeur","36 r St Martin","Mayenne","53100","02 43 32 12 05","contact@lepetitimprimeur.com","pro","https://www.lepetitimprimeur.com/","-","Imprimerie et travaux graphiques",48.302606606,-0.614215869,"-","-","-","-","-","-","-","-","-","-"
"50adb6aa84ae2742a004e08b","Imprimerie Doloise SARL","1 av Baie","Dol de Bretagne","35120","02 99 48 13 21","imprimerie.doloise@wanadoo.fr","non-pro","-","-","Imprimerie et travaux graphiques",48.553268372,-1.7242727,"-","-","-","-","-","-","-","-","-","-"
"50ad810a84aee0e51f573bce","Imprimerie Trohel","6 za Aubépin","L'Huisserie","53970","02 43 69 66 33","imprimerietrohel@orange.fr","non-pro","http://www.imprimerie-trohel.com","-","Imprimerie et travaux graphiques",48.028991,-0.77525,"-","-","-","-","-","-","-","-","-","-"
"60fb69c7f7d2ce3350a66bfe","Jk Associés","12 Rue des Peupliers","La Ferté-Macé","61600","06 20 75 12 02","c.esnault@jkpapier.fr","pro","http://jkpapier.fr/","-","Imprimerie et travaux graphiques",48.595358305,-0.345991434,"-","-","-","-","-","-","-","-","-","-"
"50ae426884ae7052f563577a","Imprimerie Faguier","5 r Gutenberg Bazouges","Château Gontier Bazouges","53200","02 43 70 35 35","-","-","http://www.imprimerie-faguier.com","-","Imprimerie et travaux graphiques",47.834792,-0.730342,"-","-","-","-","-","-","-","-","-","-"
"50ae592684ae9be1483cd821","Luminess","1 r Doct Louis Sauvé","Mayenne","53100","02 43 08 25 54","-","-","http://www.jouve.com","-","Imprimerie et travaux graphiques",48.307047509,-0.614387614,"-","-","-","-","-","-","-","-","-","-"
"57184cd69191b020543d21fc","Imprimerie Mouturat","49 r Gustave Eiffel","Flers","61100","-","mouturat.imp@orange.fr","non-pro","-","-","Imprimerie et travaux graphiques",48.728144836,-0.584885371,"-","-","-","-","-","-","-","-","-","-"
"5127947d84aea8d6370fd1a6","Le Petit Imprimeur","12 r Fontaine","Evron","53600","02 43 01 62 08","-","-","http://www.lepetitimprimeur.com","-","Imprimerie et travaux graphiques",48.154535551,-0.401573197,"-","-","-","-","-","-","-","-","-","-"
"5a27a5490351d15bb63e6516","C.M.J Imprimerie","60 Bis r Terre Rouge","Azé","53200","02 43 07 14 26","communication@cmj-imprimerie.com","pro","http://www.cmj-imprimerie.com","-","Imprimerie et travaux graphiques",47.825323,-0.685749,"-","-","-","-","-","-","-","-","-","-"
"5188121984ae0d4d5699ad59","Adhim Adhesifs Impressions","Rue du Rochereau","Miré","49330","02 41 18 87 04","-","-","http://www.adhim-adhesif.fr","-","Imprimerie et travaux graphiques",47.753035966,-0.495779989,"-","-","-","-","-","-","-","-","-","-"
"59c449e50351d15f9fdf9468","Hosea Christopher","2 la Jussiomerie","Saint Mars sur Colmont","53300","02 43 03 72 83","-","-","-","-","Imprimerie et travaux graphiques",48.378552,-0.692051,"-","-","-","-","-","-","-","-","-","-"
"589b651d0351d167ec4d2459","Imprimerie Trois Provinces","4 rte Longs Champs","Grandparigny","50600","02 33 49 02 53","-","-","-","-","Imprimerie et travaux graphiques",48.602434,-1.06792,"-","-","-","-","-","-","-","-","-","-"
"50ad569084aea7b535bd66ba","Delcroix Emballages","50 r Planchette","Flers","61100","02 33 65 05 08","delcroix.emballages@orange.fr","non-pro","http://www.delcroix-emballages.fr","-","Imprimerie et travaux graphiques",48.752347754,-0.562521431,"-","-","-","-","-","-","-","-","-","-"
"5fe493b786a3485d438f9d1c","Dupli Print","733 Rue de Saint-Léonard","Mayenne","53100","02 43 11 09 00","ssimonnet@dupliprint.fr","pro","http://jouve-print-services.com","-","Imprimerie et travaux graphiques",48.313828171,-0.614550265,"-","-","-","-","-","-","-","-","-","-"
"5e5ca9eb54c4c0274badfad7","L'Atelier de Porchois","La Prise Colin","Champsecret","61700","02 33 38 49 68","-","-","-","-","Imprimerie et travaux graphiques",48.634080654,-0.515652276,"-","-","-","-","-","-","-","-","-","-"
"50adb40184ae2742a004cc81","Imprimerie OFF'7","44 Rue du Maréchal Leclerc","Saint-Lô","50000","09 66 92 33 54","off7@wanadoo.fr","non-pro","http://www.off7-imprimerie.fr/","-","Imprimerie et travaux graphiques",49.114920326,-1.08836184,3.7,5,3,"-","-","-","-","-","-","-"
"50ad17d284ae5f3b4fe0d96d","Imprimerie Lemesle","5 bd South Molton","Livarot Pays d'Auge","14140","02 31 63 83 62","commercial@imp-lemesle.com","pro","https://www.imp-lemesle.com","-","Imprimerie et travaux graphiques",49.015046,0.153995,3,5,4,"-","-","-","-","-","-","-"
"6547126a01210072d5b3838a","Agence de communication La Mayennaise","2 Barillon Est","Saint Pierre des Nids","53370","09 81 26 66 43","jaime@lamayennaise.com","pro","-","-","Imprimerie et travaux graphiques",48.394299423,-0.087025462,5,5,1,"-","-","-","-","-","-","-"
"5beae0540351d130e655eb8e","Corep Caen","2 r Gaillon","Caen","14000","02 31 85 97 19","caen@corep.fr","pro","http://www.corep.fr/agence/corep-caen","-","Imprimerie et travaux graphiques",49.187751979,-0.366327122,5,5,1,"-","-","-","-","-","-","-"
"5a2a4ed70351d1428005e4e2","Printngo","17 r Nicéphore Niepce","Mondeville","14120","02 31 39 58 95","hugo@printngo.fr","pro","http://www.printngo.fr","-","Imprimerie et travaux graphiques",49.155189,-0.300391,"-","-","-","-","-","-","-","-","-","-"
"5beb2f220351d130e65691ff","Vireoverso","r Planche","Vire Normandie","14500","02 31 68 80 60","contact@cedricmarie.com","pro","http://www.vireoverso.com","-","Imprimerie et travaux graphiques",48.8532,-0.874565,"-","-","-","-","-","-","-","-","-","-"
"50ad45fb84ae94e00583c818","Amc Repro SARL","163 r Etienne Lenoir","Saint Lô","50000","02 33 57 17 69","contact@amcrepro.com","pro","http://www.amcrepro.com","-","Imprimerie et travaux graphiques",49.11645,-1.04586,"-","-","-","-","-","-","-","-","-","-"
"50ac9fec84ae72e3f2587087","Schuller Graphic","18 r Artisanat","Vire Normandie","14500","02 31 66 29 29","alain.fossoux@schuller-graphic.com","pro","http://schuller-graphic.com","-","Imprimerie et travaux graphiques",48.853216386,-0.871008556,"-","-","-","-","-","-","-","-","-","-"
"50ae576884ae9be1483cccbd","Lexo Imprimerie","92 r Henry Chéron","Lisieux","14100","02 31 62 26 22","lexoimprimerie@wanadoo.fr","non-pro","http://imprimerie-lisieux.com/","-","Imprimerie et travaux graphiques",49.144773086,0.22264401,"-","-","-","-","-","-","-","-","-","-"
"647833fec640396a41d7b09f","Isn3d.fr","Bellevue","Clécy","14570","06 66 47 02 41","contact@isn3d.fr","pro","http://Isn3d.fr","-","Imprimerie et travaux graphiques",48.890311,-0.489837,"-","-","-","-","-","-","-","-","-","-"
"4d6c8157fc692507785a10d7","Manche Repro","4 r Belle","Saint Lô","50000","02 33 72 23 66","manche-repro@wanadoo.fr","non-pro","http://manche-repro.fr/a-propos","-","Imprimerie et travaux graphiques",49.115540162,-1.092050778,"-","-","-","-","-","-","-","-","-","-"
"50ad58f484aea7b535bd7a57","Az Com'Impression","4 Ter av Forêt Normande","Argentan","61200","02 33 67 09 85","myriam@azcom-impression.fr","pro","https://azcom-impression.fr","-","Imprimerie et travaux graphiques",48.739088,-0.02345,"-","-","-","-","-","-","-","-","-","-"
"56a9d6f49191b069d238235d","Services Graphiques De L'Ouest","22 r Clos des Noisetiers","Saint Germain du Corbéis","61000","02 33 29 87 91","j.dossal@sgo61.fr","pro","-","-","Imprimerie et travaux graphiques",48.420913,0.077633,"-","-","-","-","-","-","-","-","-","-"
"589b8edf0351d167ec4d34e7","Jpc Design","31 r Château","Le Bourg Saint Léonard","61310","02 33 67 27 04","jpc.design.pub.signaletique@gmail.com","non-pro","http://www.jpcdesign.fr","-","Imprimerie et travaux graphiques",48.764508,0.103555,"-","-","-","-","-","-","-","-","-","-"
"50acd21a84aec628abe698a6","Artdhésif","105 r Antoine Becquerel","Ifs","14123","02 31 23 55 55","artdhesif@orange.fr","non-pro","-","-","Imprimerie et travaux graphiques",49.143625,-0.329836,"-","-","-","-","-","-","-","-","-","-"
"50b1662684ae1d53550df18d","Lambert Simon","12 Avenue de Verdun","Falaise","14700","02 31 90 78 04","sim.lamb@gmail.com","non-pro","-","-","Imprimerie et travaux graphiques",48.896284286,-0.185350664,"-","-","-","-","-","-","-","-","-","-"
"510e059d84ae3cbc6dde88bb","Timyx Atoll SARL","56 bd Nations","Grentheville","14540","02 31 82 64 43","contact@timyx.com","pro","https://www.timyx.com","-","Imprimerie et travaux graphiques",49.140505,-0.307102,"-","-","-","-","-","-","-","-","-","-"
"50aed5be84ae124c3177d65b","Alios","r Henri Claudel","Saint Lô","50000","02 33 77 65 65","-","-","http://updejeuner.fr","-","Imprimerie et travaux graphiques",49.097637224,-1.071435868,"-","-","-","-","-","-","-","-","-","-"
"587fec370351d12c7ea2555d","Atis Atelier De L'Image Et De La Sérigraphie","9 r Champs de l'Abbaye","Torigny les Villes","50160","06 10 56 16 15","contact@atisprint.fr","pro","http://www.atisprint.fr","-","Imprimerie et travaux graphiques",49.04001,-0.988088,"-","-","-","-","-","-","-","-","-","-"
"5beb27d60351d130e6568468","Copifac Caen Université","116 Rue de Geôle","Caen","14000","02 31 38 98 66","-","-","http://www.copifac-caen-repro.fr/","-","Imprimerie et travaux graphiques",49.187451251,-0.36631076,"-","-","-","-","-","-","-","-","-","-"
"50ae1d9f84ae29b8a1ed8813","Caen Repro Imprimerie","8 r Ferdinand Buisson","Saint Contest","14280","02 31 95 27 66","imprimerie@caenrepro.com","pro","http://www.caenrepro.com","-","Imprimerie et travaux graphiques",49.205844827,-0.390421717,"-","-","-","-","-","-","-","-","-","-"
"50ad19d384ae5f3b4fe0e910","Dauphin Com Imprim SARL","8 Rue Ferdinand Buisson","Saint-Contest","14280","02 31 23 60 70","contact@dauphin-com.fr","pro","http://www.imprimerielebrun.fr","-","Imprimerie et travaux graphiques",49.205844827,-0.390421717,"-","-","-","-","-","-","-","-","-","-"
"66861ffb38c21b15693c45a1","Little Car Addict","3 res Cyprès","Saint Jean d'Elle","50810","06 12 63 24 89","littlecaraddict@gmail.com","non-pro","https://littlecaraddict.fr/","-","Imprimerie et travaux graphiques",49.092277617,-0.973246695,"-","-","-","-","-","-","-","-","-","-"
"608e9d48db15aa38344a7c6c","RG Print","r André Séverin","Vire Normandie","14500","02 31 68 02 07","contact@rg-print.fr","pro","http://www.rg-print.fr","-","Imprimerie et travaux graphiques",48.84868296,-0.880059251,"-","-","-","-","-","-","-","-","-","-"
"5beb098a0351d130e6564d16","Copifac Caen Tram","106 r Geôle","Caen","14000","02 31 38 98 66","caen@copifac.fr","pro","http://www.copifac-caen-repro.fr","-","Imprimerie et travaux graphiques",49.187097,-0.366175,"-","-","-","-","-","-","-","-","-","-"
"50aec54384ae2b311b308063","Klik-Studio","8 r Denis Papin","Mondeville","14120","02 31 52 46 33","-","-","-","-","Imprimerie et travaux graphiques",49.160954982,-0.306230407,"-","-","-","-","-","-","-","-","-","-"
"50ad565484aea7b535bd64fa","Imprimerie Copydem","31 r Montjaloux","Sées","61500","02 33 27 80 52","copydem@orange.fr","non-pro","http://imprimeriecopydem.fr/","-","Imprimerie et travaux graphiques",48.603342,0.169331,"-","-","-","-","-","-","-","-","-","-"
"50ad432d84ae94e00583b2d4","Image Concept","2 Bis r Mouton","Saint Lô","50000","02 33 05 06 30","contact@imageconcept50.fr","pro","-","-","Imprimerie et travaux graphiques",49.115645,-1.08696,"-","-","-","-","-","-","-","-","-","-"
"5d8ce82454c4c06509f7b506","Agence Graphique","106 r Geôle","Caen","14000","02 61 32 42 58","contact@agence-graphique.com","pro","http://www.agence-graphique.com","-","Imprimerie et travaux graphiques",49.187006,-0.366004,"-","-","-","-","-","-","-","-","-","-"
"5876830d0351d1409c5456ae","Adhésif Publicité 14","7 all Cindais","Saint André sur Orne","14320","02 31 47 95 50","contact@artcom-shop.fr","pro","-","-","Imprimerie et travaux graphiques",49.126467824,-0.377861171,"-","-","-","-","-","-","-","-","-","-"
"50ae16dd84ae753f399e7e08","Imprimerie Renouvin","Zone Industrielle Les Vallées","Villedieu-les-Poêles-Rouffigny","50800","02 33 51 30 95","sarl.renouvin@wanadoo.fr","non-pro","-","-","Imprimerie et travaux graphiques",48.844513,-1.218539,"-","-","-","-","-","-","-","-","-","-"
"5edde4cbe0a4b226e00b2926","Le Klub","44 pl Dunois","Caen","14000","02 31 94 08 04","contact@leklub.fr","pro","http://www.leklub.fr","-","Imprimerie et travaux graphiques",49.188264894,-0.378807994,"-","-","-","-","-","-","-","-","-","-"
"570981749191b05c17846279","122Bis Marquages","122 Bis r Branville","Caen","14000","09 50 40 28 78","contact@122bis.com","pro","-","-","Imprimerie et travaux graphiques",49.17101,-0.361855,"-","-","-","-","-","-","-","-","-","-"
"5455030fe4b0f26bb595866b","Op-design","ld La Carrière","Pleines Oeuvres","14380","06 20 34 41 49","ludopdesign@gmail.com","non-pro","http://op-design.net","-","Imprimerie et travaux graphiques",48.94274,-1.041155,"-","-","-","-","-","-","-","-","-","-"
"5bb96f220351d15c1ac3377f","Izouard Sylvain","11 Rue de Condé","Saint-Pierre-d'Entremont","61800","02 33 65 11 24","spe3d@orange.fr","non-pro","-","-","Imprimerie et travaux graphiques",48.811445461,-0.645579904,"-","-","-","-","-","-","-","-","-","-"
"66bc6876276afa7a1e8c4f17","L'Atélier 3D","6 Rue de la Cave aux Bœufs","Alençon","61000","02 50 19 05 82","-","-","https://www.atelier3d61.fr/","-","Imprimerie et travaux graphiques",48.43033743,0.086890496,"-","-","-","-","-","-","-","-","-","-"
"56e0bd5b9191b0509e47f313","Pomme Print","8 r Ferdinand Buisson","Saint Contest","14280","02 31 95 27 66","contact@pommeprint.fr","pro","-","-","Imprimerie et travaux graphiques",49.205977,-0.390124,"-","-","-","-","-","-","-","-","-","-"
"50ad1a2a84ae5f3b4fe0ebef","Central Graphic Sarl","872 Chemin du Val","Ifs","14123","02 31 83 14 00","-","-","-","-","Imprimerie et travaux graphiques",49.151564846,-0.343840399,"-","-","-","-","-","-","-","-","-","-"
"562c18a09191b0730ae6bec4","Editions De Normandie Ouest","51 r St Thomas","Saint Lô","50000","02 33 72 51 91","redaction.locale@lapressedelamanche.fr","pro","http://actu.fr/la-presse-de-la-manche","-","Imprimerie et travaux graphiques",49.114146,-1.092941,"-","-","-","-","-","-","-","-","-","-"
"50ad564584aea7b535bd6493","Bemo Graphic SARL","Rue des Artisans","Condé-sur-Sarthe","61250","02 33 82 83 84","-","-","-","-","Imprimerie et travaux graphiques",48.430987883,0.05865242,"-","-","-","-","-","-","-","-","-","-"
"589b92ec0351d167ec4d36ae","Imprimerie Lecuirot","3 r Entrepreneurs","Gavray","50450","02 33 61 75 35","imprimerie@lecuirot.fr","pro","http://www.lecuirot.fr","-","Imprimerie et travaux graphiques",48.909807,-1.350516,"-","-","-","-","-","-","-","-","-","-"
"50ad1b2f84ae5f3b4fe0f35d","Dima Etiquetage","505 r Verte","Mouen","14790","02 31 26 86 00","contact@dima-etiquetage.fr","pro","http://www.dima-etiquetage.fr","-","Imprimerie et travaux graphiques",49.150996,-0.4748,"-","-","-","-","-","-","-","-","-","-"
"50aed5bd84ae124c3177d650","Imprimerie Xavier Garlan","la Chevalerie","Marigny Le Lozon","50570","02 33 77 33 22","-","-","-","-","Imprimerie et travaux graphiques",49.09089,-1.245035,"-","-","-","-","-","-","-","-","-","-"
"50ad17ad84ae5f3b4fe0d8bf","France Ouest Imprim Sté Nouvelle","bd Timmerman","Livarot Pays d'Auge","14140","02 31 61 62 00","-","-","-","-","Imprimerie et travaux graphiques",49.013369,0.157202,"-","-","-","-","-","-","-","-","-","-"
"53c7ea97e4b05c124b44fc6b","E-m-a-g Sarl","bd South Molton","Livarot Pays d'Auge","14140","02 31 62 59 29","-","-","http://www.emag-france.com","-","Imprimerie et travaux graphiques",49.015004208,0.156137545,"-","-","-","-","-","-","-","-","-","-"
"58768bfb0351d1409c545cdd","Canisy Continu","Zone Industrielle","Canisy","50750","-","-","-","-","-","Imprimerie et travaux graphiques",49.0773968,-1.159131259,"-","-","-","-","-","-","-","-","-","-"
"50ad19c184ae5f3b4fe0e86c","Atelier K Imprimerie","5 r Paul Toutain","Caen","14000","02 31 34 55 66","contact@crig-imprimerie.fr","pro","-","-","Imprimerie et travaux graphiques",49.177344068,-0.3576333,"-","-","-","-","-","-","-","-","-","-"
"50acaa9d84ae72e3f258b35c","Alisé","Le Chêne Morand","Montreuil-le-Chétif","72130","06 23 41 08 05","-","-","-","-","Imprimerie et travaux graphiques",48.22709455,-0.04838605,"-","-","-","-","-","-","-","-","-","-"
"50ad9a8484ae15a06d95b328","Imprimerie Malherbe","12 r Bellevue","Carpiquet","14650","02 31 71 38 30","-","-","http://www.groupe-tonnellier.com","-","Imprimerie et travaux graphiques",49.190621,-0.433328,"-","-","-","-","-","-","-","-","-","-"
"50aed5b384ae124c3177d5ff","Centre Impression Presse l'Ouest CIPO","10 Quai Joseph Leclerc-Hardy","Saint-Lô","50000","02 33 75 10 00","-","-","http://www.cipo.fr","-","Imprimerie et travaux graphiques",49.115418545,-1.100708015,"-","-","-","-","-","-","-","-","-","-"
"50ae21c284ae29b8a1eda5cc","Corlet Numérique","r Charles Tellier","Condé en Normandie","14110","02 31 59 10 00","numeric@corlet.fr","pro","-","-","Imprimerie et travaux graphiques",48.849227,-0.541438,"-","-","-","-","-","-","-","-","-","-"
"691d50f89e05cb70e493de8d","Innov’Impression","31 r Cazault","Alençon","61000","07 67 87 89 18","contact@innovimpression.com","pro","https://innovimpression.com/","-","Imprimerie et travaux graphiques",48.430769234,0.090907795,"-","-","-","-","-","-","-","-","-","-"
"5877fbca0351d1409c559fb0","Op Design","7 rte Tessy","Pont Farcy","14380","09 86 41 60 49","-","-","http://www.op-design.net","-","Imprimerie et travaux graphiques",48.936548,-1.033385,"-","-","-","-","-","-","-","-","-","-"
"6680dfb2c2b3383c131b1146","So'Graph","Valdalliere","Valdalliere","14410","02 31 67 08 52","-","-","-","-","Imprimerie et travaux graphiques",48.85306,-0.673711,"-","-","-","-","-","-","-","-","-","-"
"50aef70284ae4ded722d4fe7","M' Pack","Lorgerie","Averton","53700","02 43 08 36 00","boutique@mpack.fr","pro","http://boutique-mpack.com","-","Imprimerie et travaux graphiques",48.384014723,-0.236594479,"-","-","-","-","-","-","-","-","-","-"
"50aec69284ae2b311b30891a","Lebrun Impressions J.P","5 r Avenir","Carpiquet","14650","02 31 71 11 24","-","-","-","-","Imprimerie et travaux graphiques",49.190283,-0.438173,"-","-","-","-","-","-","-","-","-","-"
"587744c90351d1409c54f420","Lusset Aurélien","Le Bourg","La Villette","14570","06 03 73 54 99","flockmasterpub@gmail.com","non-pro","-","-","Imprimerie et travaux graphiques",48.91125493,-0.543762129,"-","-","-","-","-","-","-","-","-","-"
"50acf16e84ae9c6b73401c81","In Extremis Diamen Imprimerie De La Manche","562 r Jules Vallés","Saint Lô","50000","-","-","-","-","-","Imprimerie et travaux graphiques",49.101623105,-1.073207746,"-","-","-","-","-","-","-","-","-","-"
"50ad1c2584ae5f3b4fe0fa67","Adhésif Publicité 14","5 rte Cabourg","Colombelles","14460","02 31 72 05 06","-","-","-","-","Imprimerie et travaux graphiques",49.199876711,-0.292255842,"-","-","-","-","-","-","-","-","-","-"
"50ae219d84ae29b8a1eda4bb","Graph By Le Reverend","Boulevard de l'Expansion","Argentan","61200","02 33 36 46 46","-","-","-","-","Imprimerie et travaux graphiques",48.730365428,-0.026092917,"-","-","-","-","-","-","-","-","-","-"
"510e024784ae3cbc6dde8793","Imprimerie Gallet SARL","279 r Libération","Saint Désir","14100","-","-","-","-","-","Imprimerie et travaux graphiques",49.139369,0.17021,"-","-","-","-","-","-","-","-","-","-"
"53224c9de4b04129c76a81d4","Les Nouvelles De Falaise","17 Rue J.-H. Hallet","Caen","14000","02 31 72 38 07","-","-","http://publihebdos.com","-","Imprimerie et travaux graphiques",49.199642486,-0.390890409,"-","-","-","-","-","-","-","-","-","-"
"67dcdd3771da96498ef89f26","Brunet Delphine","2 le Moulin","Baudre","50000","02 33 05 48 12","-","-","-","-","Imprimerie et travaux graphiques",49.08353,-1.07217,"-","-","-","-","-","-","-","-","-","-"
"5827a2dc0351d1388e49d48d","Legrand Stéphane","11 r Fernand Léger","Giberville","14730","02 31 72 45 76","-","-","-","-","Imprimerie et travaux graphiques",49.185023,-0.279182,"-","-","-","-","-","-","-","-","-","-"
"65bb0d15a79c5e3cbd156a66","Arf Caen Epoxy","6 che Aunay","La Houblonnière","14340","02 31 25 07 58","-","-","-","-","Imprimerie et travaux graphiques",49.13642597,0.119067448,"-","-","-","-","-","-","-","-","-","-"
"667f9385b0cc7364ceb28cbb","Imprim'Fassyl","14 Rue de la Liberté","Giberville","14730","02 31 72 08 13","-","-","-","-","Imprimerie et travaux graphiques",49.18449295,-0.285900725,"-","-","-","-","-","-","-","-","-","-"
"6680dd0bc2b3383c131af88e","Mel Creation","9 La Métairie au Bouvet","Saint-Mars-sur-Colmont","53300","02 43 08 60 54","-","-","-","-","Imprimerie et travaux graphiques",48.368955931,-0.723286554,"-","-","-","-","-","-","-","-","-","-"
"6680de2ac2b3383c131b02a3","Total Covering","19 Rue Louis Blériot","Alençon","61000","09 61 61 52 74","-","-","-","-","Imprimerie et travaux graphiques",48.437490704,0.109782921,"-","-","-","-","-","-","-","-","-","-"
"6680e333c2b3383c131b340e","Cindy Creation 61","18 r Vincent Muselli","Argentan","61200","09 87 77 47 56","-","-","-","-","Imprimerie et travaux graphiques",48.748229894,-0.018739311,"-","-","-","-","-","-","-","-","-","-"
"667f97d9b0cc7364ceb2b7c2","L'Atelier Du Flocage","1 Impasse des Jardins","Giberville","14730","02 31 84 59 71","-","-","-","-","Imprimerie et travaux graphiques",49.1759778,-0.283776926,"-","-","-","-","-","-","-","-","-","-"
"66823216860f1b23f3086dd1","Eclo","14 Le Petit Hamel","Saint-Georges-Montcocq","50000","02 33 06 09 61","-","-","-","-","Imprimerie et travaux graphiques",49.138803103,-1.104445453,"-","-","-","-","-","-","-","-","-","-"
"6306f2a665243866e4579566","Jouve","733 r St Léonard","Mayenne","53100","02 43 08 25 54","-","-","-","-","Imprimerie et travaux graphiques",48.313822,-0.614565,"-","-","-","-","-","-","-","-","-","-"
"5bf623410351d122fac121f0","Publicicom Publicicom France","110 r Oppidum","Saint Désir","14100","06 98 94 00 72","-","-","-","-","Imprimerie et travaux graphiques",49.136653382,0.170329374,"-","-","-","-","-","-","-","-","-","-"
"572a2d2e9191b01521bfa59c","Douchin Romain","3 Bis r Serg Goubin","Falaise","14700","09 53 99 76 35","-","-","-","-","Imprimerie et travaux graphiques",48.899218,-0.197183,"-","-","-","-","-","-","-","-","-","-"
"6682374f860f1b23f3089d7e","Bourmaut Chantal","Bois de Flers","Saint-Georges-des-Groseillers","61100","02 33 65 18 49","-","-","-","-","Imprimerie et travaux graphiques",48.753300516,-0.55201194,"-","-","-","-","-","-","-","-","-","-"
"5a58b16f0351d13be4cd7112","Peschet Martine","17 Rue des Rosiers","Caen","14000","02 31 23 40 93","-","-","-","-","Imprimerie et travaux graphiques",49.186010332,-0.373097574,"-","-","-","-","-","-","-","-","-","-"
"5802a8350351d118cc73dd0b","Peleszko Patrick","150 r Gustave Flaubert","Saint Lô","50000","02 14 39 81 66","-","-","-","-","Imprimerie et travaux graphiques",49.10896,-1.077491,"-","-","-","-","-","-","-","-","-","-"
"56ad3f599191b0520e3dcde9","Arts Print Numeric","24 r Vire","Condé en Normandie","14110","07 82 32 14 68","-","-","http://www.artsprintnumeric.fr","-","Imprimerie et travaux graphiques",48.849233,-0.552752,"-","-","-","-","-","-","-","-","-","-"
"50acde4a84aec628abe6f513","Compedit Beauregard","Rue des Peupliers","La Ferté-Macé","61600","02 33 37 08 33","imprimerie@compedit-beauregard.fr","pro","http://www.compedit-beauregard.fr","-","Imprimerie et travaux graphiques",48.596700452,-0.344169371,"-","-","-","-","-","-","-","-","-","-"
"678492b511e8b5696c2df84b","Corlet Imprimeur","rte Vire","Condé en Normandie","14110","02 31 69 32 83","-","-","-","-","Imprimerie et travaux graphiques",48.851628909,-0.566138819,"-","-","-","-","-","-","-","-","-","-"
"50acd22484aec628abe698f9","Brochage Diffusion","10 Rue des Entrepreneurs","Bretteville-sur-Odon","14760","02 31 26 64 40","-","-","-","-","Imprimerie et travaux graphiques",49.186447871,-0.41642355,"-","-","-","-","-","-","-","-","-","-"
"50ae008e84ae33b58a18811d","Imprimerie Anquetil","16 Avenue de Suède","Condé-en-Normandie","14110","02 31 59 11 00","-","-","http://www.imprimerie-anquetil.fr","-","Imprimerie et travaux graphiques",48.84286078,-0.562334628,"-","-","-","-","-","-","-","-","-","-"
"5beafbc40351d130e6562f47","Point Pub","27 r Lazare Carnot","Alençon","61000","02 33 26 51 75","devis@point-pub.com","pro","http://point-pub.com","-","Imprimerie et travaux graphiques",48.446594367,0.092043767,"-","-","-","-","-","-","-","-","-","-"
"50acd2b184aec628abe69d51","Coregraphic","5 r Avenir","Carpiquet","14650","02 31 71 11 11","-","-","http://www.phenix-etiquettes.fr","-","Imprimerie et travaux graphiques",49.190283,-0.438173,"-","-","-","-","-","-","-","-","-","-"
"5a32bec70351d1201ead1246","C . E . a . G","La Forêtrie Moulin","Cerisi Belle Etoile","61100","02 33 96 16 16","contact@ceag.fr","pro","http://www.ceag.fr","-","Imprimerie et travaux graphiques",48.784118,-0.631843,"-","-","-","-","-","-","-","-","-","-"
"666515dd58df532405d1bd67","Concept Enseigne","24 bis Rue de Villons-les-Buissons","Caen","14000","02 31 50 20 20","-","-","-","-","Imprimerie et travaux graphiques",49.199578246,-0.401892616,"-","-","-","-","-","-","-","-","-","-"
"50aed5d884ae124c3177d6ae","Imprimerie Anais","27 r Industrie","Cerisé","61000","02 33 80 30 60","coop@angersfrenchtech.com","pro","https://www.fondation-anais.org","-","Imprimerie et travaux graphiques",48.443972281,0.112976064,"-","-","-","-","-","-","-","-","-","-"
"5c6a8ab40351d12963057143","Clarine Conseils","34 r Troarn","Gonneville en Auge","14810","02 31 95 28 66","clarine.conseils@gmail.com","non-pro","https://clarineconseils.wixsite.com/clarineconseils","-","Imprimerie et travaux graphiques",49.25046,-0.189782,5,5,7,"-","-","-","-","-","-","-"
"5d9a8a4354c4c0190e438038","Enseignes Dufour","5 r Bel Air","Cherbourg en Cotentin","50470","06 32 07 89 94","enseigne.dufour@gmail.com","non-pro","https://www.enseignes-dufour.com","-","Imprimerie et travaux graphiques",49.611834,-1.601984,2.3,5,2,"-","-","-","-","-","-","-"
"510d0b6684aec73dd8853979","Imprimerie Versailles Normand","14 r Poterie","Valognes","50700","02 33 40 10 79","benoit.ozouf@orange.fr","non-pro","http://www.imprimerie-versailles-normand.fr","-","Imprimerie et travaux graphiques",49.509755,-1.469256,5,5,1,"-","-","-","-","-","-","-"
"668235a3860f1b23f3088d67","Riva Imprimerie Pub et Textiles","Avenue Michel Cabieu","Ouistreham","14150","07 68 21 91 52","contact@riva-imprimerie.com","pro","https://www.riva-imprimerie.com/","-","Imprimerie et travaux graphiques",49.277465759,-0.254766461,"-","-","-","-","-","-","-","-","-","-"
"50ae18b584ae753f399e8ae0","Imprimerie Moderne De Bayeux IMB","7 r Résistance","Bayeux","14400","02 31 51 63 20","imb@imb-bx.fr","pro","https://www.imb-bayeux.fr","-","Imprimerie et travaux graphiques",49.267201,-0.694292,"-","-","-","-","-","-","-","-","-","-"
"4f43fa13e4b0d09889036731","F.M. Repro","7 Rue du Maréchal Foch","Coutances","50200","02 33 45 31 49","fm.repro@orange.fr","non-pro","http://www.fm-repro.fr","-","Imprimerie et travaux graphiques",49.046804382,-1.443120598,"-","-","-","-","-","-","-","-","-","-"
"50acf69e84ae9c6b73404376","Micro Logo","3 Rue du Général Leclerc","La Haye","50250","02 33 07 56 95","micro.logo@orange.fr","non-pro","http://www.micro-logo.com/","-","Imprimerie et travaux graphiques",49.291063071,-1.545675457,"-","-","-","-","-","-","-","-","-","-"
"50aec69084ae2b311b308907","Iaka","26 Bis av Sud","Hauteville sur Mer","50590","02 33 07 99 35","philippe@agence-iaka.fr","pro","-","-","Imprimerie et travaux graphiques",48.969403,-1.558423,"-","-","-","-","-","-","-","-","-","-"
"50aed65184ae124c3177da0c","Granvil'Pub","Rue des Métiers","Granville","50400","02 33 91 80 47","sylvain@granvilpub.com","pro","http://www.granvilpub.com","-","Imprimerie et travaux graphiques",48.841846898,-1.561039055,"-","-","-","-","-","-","-","-","-","-"
"50aed42c84ae124c3177cb87","L'Atelier de Sonia et Mika","19 r Pierre Aigue","Donville les Bains","50350","02 33 59 00 94","ateliersoniaetmika@orange.fr","non-pro","-","-","Imprimerie et travaux graphiques",48.854022,-1.560741,"-","-","-","-","-","-","-","-","-","-"
"50ae3ea984ae7052f5633c28","Offset Service","7 r Laitière","Bayeux","14400","02 31 92 21 19","offset.services@orange.fr","non-pro","-","-","Imprimerie et travaux graphiques",49.276698,-0.702262,"-","-","-","-","-","-","-","-","-","-"
"5396ba81e4b05da9bc411ec4","Imprim' Solutions","170 Rue de la Corderie","Bernières-sur-Mer","14990","06 81 72 87 50","corinne.aubree.pro@orange.fr","non-pro","-","-","Imprimerie et travaux graphiques",49.330028858,-0.421721853,"-","-","-","-","-","-","-","-","-","-"
"511930a784ae1493427ea22f","Impressions Maudouit Continu IMC","Rue du Clos Marette","Coutances","50200","02 33 46 67 06","impressions.imc@gmail.com","non-pro","http://www.imc-impressions.fr","-","Imprimerie et travaux graphiques",49.067547742,-1.425389047,"-","-","-","-","-","-","-","-","-","-"
"521d7f1884aedcd90d5aa4a9","Provisuel","1 Le Grand Pré","Anisy","14610","02 55 99 88 77","-","-","http://www.provisuel.fr","-","Imprimerie et travaux graphiques",49.251391,-0.385264,"-","-","-","-","-","-","-","-","-","-"
"5fe494c086a3485d438fa95c","CADRAT Print Services","27 r Lande","Lison","14330","02 61 77 01 95","contact@cadrat.ovh","pro","http://www.cadrat.ovh","-","Imprimerie et travaux graphiques",49.241585397,-1.036409003,"-","-","-","-","-","-","-","-","-","-"
"5f9bec6176d0477f004ab595","Allprints","8 r Armand Busquet","Bayeux","14400","06 28 63 30 50","contact@allprints.fr","pro","http://www.allprints.fr","-","Imprimerie et travaux graphiques",49.264113838,-0.688329814,"-","-","-","-","-","-","-","-","-","-"
"50adb63184ae2742a004dcbe","Cotentin Etiquettes","129 che Blactot","Carentan les Marais","50500","02 33 42 35 25","info@cotentin-etiquettes.fr","pro","http://www.cotentin-etiquettes.com","-","Imprimerie et travaux graphiques",49.313715,-1.253943,"-","-","-","-","-","-","-","-","-","-"
"510adb3784ae62bd3d447dc5","Imprimerie Philippe Marie","37 bd Alsace Lorraine","Coutances","50200","02 33 45 36 71","phmarie@wanadoo.fr","non-pro","-","-","Imprimerie et travaux graphiques",49.050418,-1.446081,"-","-","-","-","-","-","-","-","-","-"
"572e13109191b062a30babb0","Printamax","3 Rue de l'Artisanat","Ranville","14860","09 75 21 17 15","contact@printamax.fr","pro","http://www.printamax.fr","-","Imprimerie et travaux graphiques",49.239335102,-0.254378111,"-","-","-","-","-","-","-","-","-","-"
"518f468f84ae0c5fe477cc95","Com'une Image","17 pl Henry Gréville","Cherbourg en Cotentin","50100","02 33 93 89 55","contact@une-image.com","pro","http://une-image.com","-","Imprimerie et travaux graphiques",49.638275213,-1.628074042,1,5,3,"-","-","-","-","-","-","-"
"5f5b53163fd32a3a430fc40d","Bim Bo Edition","4 r Philippe Lebel","Portbail","50580","02 33 21 61 34","bore.emilie@gmail.com","non-pro","-","-","Imprimerie et travaux graphiques",49.334075,-1.698695,"-","-","-","-","-","-","-","-","-","-"
"56b67aab9191b067244bf7c9","Instants Tissés","36 bis Rue Émile Bertin","Cherbourg-en-Cotentin","50470","06 52 46 40 70","info@instantstisses.com","pro","-","-","Imprimerie et travaux graphiques",49.614145915,-1.58080309,"-","-","-","-","-","-","-","-","-","-"
"50aec8c884ae2b311b309a4a","AF Multiservices","Route de Caen","Ouistreham","14150","02 31 97 12 85","af.multiservices7@gmail.com","non-pro","-","-","Imprimerie et travaux graphiques",49.268481046,-0.258621793,"-","-","-","-","-","-","-","-","-","-"
"50ad4a3384ae94e00583e7be","Etiq Normandie","72 rte Zone Industrielle","Lessay","50430","02 33 76 74 07","contact@etiqnormandie.fr","pro","http://www.etiq-normandie.fr","-","Imprimerie et travaux graphiques",49.209203,-1.499365,"-","-","-","-","-","-","-","-","-","-"
"6180c51545b52d17f67cdc98","2d Racing","Rue de la Moinerie","Tour-en-Bessin","14400","02 31 70 09 45","-","-","http://www.2d-racing.com","-","Imprimerie et travaux graphiques",49.297201334,-0.775925018,"-","-","-","-","-","-","-","-","-","-"
"6242875454e64a45ed130c34","Cossé Valentin","25 Route du Prieuré","Hocquigny","50320","02 61 69 07 52","contact@valentin-cosse.com","pro","-","-","Imprimerie et travaux graphiques",48.808948382,-1.402044484,"-","-","-","-","-","-","-","-","-","-"
"57af5fbd0351d1619f8ee83a","Imprimerie Artistique Lecaux","260 Rue des Noisetiers","Cherbourg-en-Cotentin","50110","02 33 88 52 52","contact@groupelecaux.com","pro","http://www.groupelecaux.com","-","Imprimerie et travaux graphiques",49.635799366,-1.579727876,"-","-","-","-","-","-","-","-","-","-"
"4d6c9c76fc692507494411d7","I.C.L Graphic","2 r St Lin","Valognes","50700","02 33 95 02 00","icl.graphic@wanadoo.fr","non-pro","http://www.icl-graphic.com","-","Imprimerie et travaux graphiques",49.505763,-1.477788,"-","-","-","-","-","-","-","-","-","-"
"50adbfc784ae2742a005250d","Statim","rte Carentan","Périers","50190","02 33 76 89 89","-","-","-","-","Imprimerie et travaux graphiques",49.19044,-1.401572,"-","-","-","-","-","-","-","-","-","-"
"50aece5484ae124c3177a3d5","Genèse SA","rte Huberville","Valognes","50700","02 33 21 64 23","info@genese.fr","pro","http://www.genese.fr","-","Imprimerie et travaux graphiques",49.5127558,-1.4602029,"-","-","-","-","-","-","-","-","-","-"
"50aed45284ae124c3177cc82","Atout Graphic","111 Rue des Écrehous","Saint-Pair-sur-Mer","50380","02 33 59 75 30","contact@atoutgraphic.com","pro","http://www.atoutgraphic.fr","-","Imprimerie et travaux graphiques",48.81383815,-1.547854009,"-","-","-","-","-","-","-","-","-","-"
"634a5c56685eba22dc90599f","3dk","26 rte Châtellerie","Bricqueville sur Mer","50290","06 19 72 31 37","-","-","-","-","Imprimerie et travaux graphiques",48.911317,-1.533772,"-","-","-","-","-","-","-","-","-","-"
"68870739561efa09f8d0e79b","Oreal Stéphane","17 clos Lion","Saint Vigor le Grand","14400","02 31 22 47 50","-","-","-","-","Imprimerie et travaux graphiques",49.272439,-0.682291,"-","-","-","-","-","-","-","-","-","-"
"65fd14670b446a5d163fdabc","Bougard Guillaume","356 Rue de la Chapelle","Saint-Aubin-sur-Mer","14750","06 18 05 94 46","-","-","-","-","Imprimerie et travaux graphiques",49.32638852,-0.377907919,"-","-","-","-","-","-","-","-","-","-"
"5a6a9e0e0351d11fa08eca49","Aubert Graphic SARL","84 Rue du Moulin à Vent","Créances","50710","02 33 46 16 26","-","-","-","-","Imprimerie et travaux graphiques",49.199486339,-1.556722037,"-","-","-","-","-","-","-","-","-","-"
"64a64a68bca921218909796f","Dimitri Larrour","7 rte Fèves","Auvers","50500","06 65 51 36 57","-","-","-","-","Imprimerie et travaux graphiques",49.301131705,-1.344383223,"-","-","-","-","-","-","-","-","-","-"
"6680e111c2b3383c131b1e75","Les Pots Nieleda","503 Rue de la Fontaine Martin","Tourville-sur-Sienne","50200","06 32 24 18 99","-","-","-","-","Imprimerie et travaux graphiques",49.047398084,-1.539528969,"-","-","-","-","-","-","-","-","-","-"
"667f9659b0cc7364ceb2a88b","3Dlapierre","174 Rue Jean Goubert","Cherbourg-en-Cotentin","50110","09 73 56 27 07","-","-","-","-","Imprimerie et travaux graphiques",49.64729769,-1.58845609,"-","-","-","-","-","-","-","-","-","-"
"6682330a860f1b23f3087554","Jcdesevre","Rue Charles Jeanbin","Agon-Coutainville","50230","02 33 46 71 49","-","-","-","-","Imprimerie et travaux graphiques",49.04756926,-1.596894513,"-","-","-","-","-","-","-","-","-","-"
"657fe7cff887d35cfb1fe933","Broderies OVERLORD-S.A.S CD3M","4 Voie de Bière","Bayeux","14400","02 31 21 97 30","broderies.overlord@gmail.com","non-pro","-","-","Imprimerie et travaux graphiques",49.277884629,-0.694860911,"-","-","-","-","-","-","-","-","-","-"
"50acf76184ae9c6b734048c2","EDIIS Courseulles","r Artisans","Courseulles sur Mer","14470","-","-","-","http://www.ediis.fr","-","Imprimerie et travaux graphiques",49.320815348,-0.458887901,"-","-","-","-","-","-","-","-","-","-"
"58c8bda30351d174977f5b80","Publicite Leroux","5 le Bourg","Saint Lô d'Ourville","50580","02 33 53 82 40","-","-","http://www.publicite-leroux.fr","-","Imprimerie et travaux graphiques",49.334378,-1.671923,"-","-","-","-","-","-","-","-","-","-"
"551f93b8e4b056253c7fe297","Ruiz Et Hill","r Plaine","Bénouville","14970","06 47 84 50 32","-","-","-","-","Imprimerie et travaux graphiques",49.23081,-0.294345,"-","-","-","-","-","-","-","-","-","-"
"579d204c0351d105a5ff24f6","Adam Enseigne","5 r Pablo Néruda","Harfleur","76700","06 82 33 27 93","adam.enseigne@gmail.com","non-pro","http://www.adamenseigne.com","-","Imprimerie et travaux graphiques",49.517959,0.187817,5,5,2,"-","-","-","-","-","-","-"
"5876d0240351d1409c548ec8","2G Com","165 r République","Port Jérôme sur Seine","76330","02 35 39 91 75","gravenchon.gravure@orange.fr","non-pro","http://www.gravenchon-gravure.com","-","Imprimerie et travaux graphiques",49.489638,0.564792,"-","-","-","-","-","-","-","-","-","-"
"510d06e684aec73dd8853765","Imprimerie I.T.O SARL","41 r Marcel Paul","Le Havre","76600","02 35 24 32 93","ito.compta@gmail.com","non-pro","-","-","Imprimerie et travaux graphiques",49.493610176,0.145933702,"-","-","-","-","-","-","-","-","-","-"
"533cb87be4b095142b4511d7","Herault Imprimeur","Zone Industrielle 1","L'Aigle","61300","02 33 24 10 10","contact.herault@groupe-budin.fr","pro","https://herault-imprimeur.fr","-","Imprimerie et travaux graphiques",48.745344,0.636423,"-","-","-","-","-","-","-","-","-","-"
"64c0415d9e51b422bb07efb1","Imprimerie Marie","za Plateau","Honfleur","14600","02 31 89 20 34","devis@imprimerie-marie.fr","pro","https://imprimerie-marie.fr/","-","Imprimerie et travaux graphiques",49.418762,0.233262,"-","-","-","-","-","-","-","-","-","-"
"50adbfe484ae2742a0052581","Atelier Gutenberg - Sécretariat De La Risle","22 r Paul Clémencin","Pont Audemer","27500","06 40 16 50 27","ateliergutenberg@wanadoo.fr","non-pro","http://ateliergutenberg.com","-","Imprimerie et travaux graphiques",49.356643,0.514413,"-","-","-","-","-","-","-","-","-","-"
"511ad3b684aef5f025ebc720","Sériprim","1624 bd Jean Charles Contel","Glos","14100","02 31 62 54 40","j.rognon@seriprim.com","pro","https://www.jetuil-agence-communication.fr","-","Imprimerie et travaux graphiques",49.142813,0.297601,"-","-","-","-","-","-","-","-","-","-"
"50add9ff84ae70fdb2b1d668","Atelier Deco Pub","86 Rue Louis Pasteur","Beuzeville","27210","02 32 42 57 76","atelier.deco.pub@orange.fr","non-pro","http://www.atelierdecopub.com","-","Imprimerie et travaux graphiques",49.343886362,0.344803508,"-","-","-","-","-","-","-","-","-","-"
"50ad1b5884ae5f3b4fe0f49b","Bs2i","av Dupont Grave","Honfleur","14600","02 31 89 27 22","info@bs2i.net","pro","http://www.bs2i.net","-","Imprimerie et travaux graphiques",49.394708,0.256694,"-","-","-","-","-","-","-","-","-","-"
"52fc636ee4b00993c7bfa9b5","Nicom Pub and Print","10 r Lecordeur","Touques","14800","02 31 64 87 59","nicompub14@gmail.com","non-pro","https://www.nicom-pubandprint.com/","-","Imprimerie et travaux graphiques",49.3463,0.099785,"-","-","-","-","-","-","-","-","-","-"
"50aecb5c84ae2b311b30ac64","Atelier Houdou","4 r Jacques Daviel","Bernay","27300","02 32 43 48 46","info@houdou.fr","pro","http://www.houdou.fr","-","Imprimerie et travaux graphiques",49.087167,0.60169,"-","-","-","-","-","-","-","-","-","-"
"64e2e0dab6872a2ea6922d4b","Lp3d","Clairefeuille","Saint-Germain-de-Clairefeuille","61240","07 68 53 74 61","lp3d.shop@gmail.com","non-pro","https://lp3d-shop.com","-","Imprimerie et travaux graphiques",48.708686758,0.256168695,"-","-","-","-","-","-","-","-","-","-"
"510e2bac84aec0fd8f43e95c","Replic","18 r Léon Gambetta","Montivilliers","76290","02 35 30 00 75","-","-","-","-","Imprimerie et travaux graphiques",49.543940532,0.192353469,"-","-","-","-","-","-","-","-","-","-"
"59f588110351d121630e56b1","Imagie'n'air Prod","4 r Ferme Dambuc","Gonfreville l'Orcher","76700","06 59 46 98 34","contact@imagienairprod.fr","pro","http://www.imagienairprod.fr","-","Imprimerie et travaux graphiques",49.51159,0.220793,"-","-","-","-","-","-","-","-","-","-"
"60aa513d9f36821a650f04ca","Mail Boxes Etc. - Centre MBE 3176","112 Rue du Maréchal Joffre","Le Havre","76600","02 35 20 46 47","-","-","http://www.mbefrance.fr/3176","-","Imprimerie et travaux graphiques",49.499890866,0.124606479,"-","-","-","-","-","-","-","-","-","-"
"65053660fc31851e82a7a4f4","Ma Belle Page","288 snte St Michel","Tourville sur Pont Audemer","27500","06 88 50 36 86","mabellepage@outlook.fr","non-pro","https://www.mabellepage.fr","-","Imprimerie et travaux graphiques",49.339112826,0.504301195,"-","-","-","-","-","-","-","-","-","-"
"608dd19adb15aa38344a7588","Peppergraphik","144 bd Jules Durand","Le Havre","76600","06 15 40 41 82","contact@peppergraphik.fr","pro","http://www.peppergraphik.com","-","Imprimerie et travaux graphiques",49.490553,0.160732,"-","-","-","-","-","-","-","-","-","-"
"551571c4e4b0e443b0eece77","Talesca","r Gustave Eiffel","Pont Audemer","27500","02 32 41 06 39","contact2@talesca.fr","pro","http://www.talesca.fr","-","Imprimerie et travaux graphiques",49.34560689,0.544774882,"-","-","-","-","-","-","-","-","-","-"
"50ad74b884aedec6f6c07c05","Imprimerie Legeay","58 r Eglise","Le Havre","76600","-","contact@imprimerie-legeay.fr","pro","-","-","Imprimerie et travaux graphiques",49.485178,0.132216,"-","-","-","-","-","-","-","-","-","-"
"5beaf3870351d130e6561b02","Graphic Estuaire","8 r Colette","Le Havre","76620","06 71 03 55 56","ph.lerondel@graphicestuaire.com","pro","-","-","Imprimerie et travaux graphiques",49.509967,0.098397,"-","-","-","-","-","-","-","-","-","-"
"5733730c9191b0261303d2f7","Legroux Gilles","Rue du Cabaret","Le Perrey","27500","02 32 20 18 29","rubixpub@orange.fr","non-pro","-","-","Imprimerie et travaux graphiques",49.3808486,0.5683869,"-","-","-","-","-","-","-","-","-","-"
"4d6da109b9eb2507ad92cec3","Copifac","120 Rue Casimir Delavigne","Le Havre","76600","02 35 43 56 74","-","-","https://www.copifac.fr/nous-contacter","-","Imprimerie et travaux graphiques",49.496067291,0.125841452,"-","-","-","-","-","-","-","-","-","-"
"56154fdd9191b05713fcf0e6","Squivee Thibaut","18 Rue Louis Jomier","Le Havre","76610","09 82 27 60 57","-","-","http://tybografik.fr","-","Imprimerie et travaux graphiques",49.510944567,0.171091757,"-","-","-","-","-","-","-","-","-","-"
"5beaf5020351d130e6561ed4","Imprimerie Loiseleur","1371 r Edouard Branly","Lisieux","14100","02 31 62 05 44","info@loiseleur.fr","pro","http://www.loiseleur.fr","-","Imprimerie et travaux graphiques",49.147468,0.273264,"-","-","-","-","-","-","-","-","-","-"
"55454e9ce4b0f51123c9c9df","Graph 2000","rte Broglie","Bernay","27300","02 32 43 43 43","-","-","-","-","Imprimerie et travaux graphiques",49.075150403,0.581613394,"-","-","-","-","-","-","-","-","-","-"
"510e0c6284ae3cbc6dde8be9","Adelinet Imprimeur","r Gustave Eiffel","Pont Audemer","27500","02 32 41 06 39","-","-","https://www.talesca.fr/","-","Imprimerie et travaux graphiques",49.3456069,0.5447749,"-","-","-","-","-","-","-","-","-","-"
"50ad74b884aedec6f6c07c06","Adezif Cartha SARL","17 Rue de l'Amiral Courbet","Le Havre","76600","02 35 24 18 20","cartha@cartha.fr","pro","-","-","Imprimerie et travaux graphiques",49.48556777,0.131472687,"-","-","-","-","-","-","-","-","-","-"
"50ada44a84ae158e9923b9fb","Société Normande d'Arts Graphiques SNAG","av Cantipou","Gonfreville l'Orcher","76700","-","-","-","http://www.groupe-morault.com","-","Imprimerie et travaux graphiques",49.511564507,0.211247817,"-","-","-","-","-","-","-","-","-","-"
"50ae267784ae29b8a1edc761","Imprimerie Beau Soleil","56 r Commerce","Vespière Friardel (La)","14290","02 31 63 48 48","-","-","-","-","Imprimerie et travaux graphiques",49.023841,0.417934,"-","-","-","-","-","-","-","-","-","-"
"64a79a4d3ef20915deb02010","Ca Imprime","43 Avenue de l'Hippodrome","Cabourg","14390","09 72 98 50 63","info@ca-imprime.com","pro","http://www.ca-imprime.com","-","Imprimerie et travaux graphiques",49.280807971,-0.116197632,"-","-","-","-","-","-","-","-","-","-"
"510aeba884ae62bd3d448215","La Petite Presse","91 Rue Jules Lecesne","Le Havre","76600","02 35 42 05 62","-","-","-","-","Imprimerie et travaux graphiques",49.493241324,0.119576667,"-","-","-","-","-","-","-","-","-","-"
"572516599191b063322c41c8","Houdoux Laurent","21 r Canadiens","Brionne","27800","02 32 45 99 01","-","-","-","-","Imprimerie et travaux graphiques",49.198047,0.722968,"-","-","-","-","-","-","-","-","-","-"
"50aeccbe84ae2b311b30b64c","c'Sibo Sarl","7 che Roquette","Saint Germain Village","27500","02 32 56 28 33","-","-","-","-","Imprimerie et travaux graphiques",49.3457999,0.5193238,"-","-","-","-","-","-","-","-","-","-"
"5ad9bebc0351d1247cdf9ee1","Studio Courte Echelle","96 Rue Casimir Delavigne","Le Havre","76600","06 85 96 10 30","studiocourteechelle@gmail.com","non-pro","-","-","Imprimerie et travaux graphiques",49.495707076,0.124545761,"-","-","-","-","-","-","-","-","-","-"
"50ad9b6784ae15a06d95b99e","Imprimhebdos-Publihebdos","rte Orbec","Caorches Saint Nicolas","27300","02 32 47 42 10","-","-","http://publihebdos.com","-","Imprimerie et travaux graphiques",49.076115185,0.538652362,"-","-","-","-","-","-","-","-","-","-"
"579938220351d137c8fbfb9c","Valsemey François","9 Résidence Le Vert Coteau","Bernay","27300","09 53 99 28 80","-","-","-","-","Imprimerie et travaux graphiques",49.095569641,0.601698469,"-","-","-","-","-","-","-","-","-","-"
"50ad2a3284ae7287a21c663e","Marie Paulette","230 che Bois Carre","Saint Etienne l'Allier","27450","06 48 76 94 58","ofi27@wanadoo.fr","non-pro","-","-","Imprimerie et travaux graphiques",49.272074,0.568488,"-","-","-","-","-","-","-","-","-","-"
"577a9f310351d1307eaafb87","Dumouchel Jérôme","1 r Paul Lucas","Le Havre","76600","02 35 42 02 01","-","-","-","-","Imprimerie et travaux graphiques",49.496069793,0.095749727,"-","-","-","-","-","-","-","-","-","-"
"6143ef79b165bc3813a818cf","Sodimpal","25 Rue Édouard Herriot","Le Havre","76600","02 77 00 00 30","l.vigneux@groupe-morault.com","pro","-","-","Imprimerie et travaux graphiques",49.495763123,0.108625118,"-","-","-","-","-","-","-","-","-","-"
"66e4fed70bdfc23f30da1e3d","Compo Photo Havre","1836 Route de Tourville-en-Auge","Saint-Martin-aux-Chartrains","14130","02 31 64 80 23","-","-","-","-","Imprimerie et travaux graphiques",49.315417649,0.174352549,"-","-","-","-","-","-","-","-","-","-"
"641d6eda5c3a775b23915a0d","MS Calendriers","72 Rue d'Estimauville","Le Havre","76600","02 35 42 04 51","-","-","-","-","Imprimerie et travaux graphiques",49.488183792,0.106871302,"-","-","-","-","-","-","-","-","-","-"
"64a110194143124b5b6b3e26","Exeterra","21 Quartier du Mesnil","Martainville","27210","06 10 16 82 40","-","-","-","-","Imprimerie et travaux graphiques",49.307406762,0.383314659,"-","-","-","-","-","-","-","-","-","-"
"6680dc8ec2b3383c131af485","Kool'Eure","60 r St Pierre","Montfort sur Risle","27290","02 77 18 24 69","-","-","-","-","Imprimerie et travaux graphiques",49.297534835,0.661770424,"-","-","-","-","-","-","-","-","-","-"
"53c777e9e4b05c124b4489a1","S.I.P.S Sté Industrielle Plastique et Stratification","7 r Roquette","Saint Germain Village","27500","-","-","-","-","-","Imprimerie et travaux graphiques",49.346415607,0.517815871,"-","-","-","-","-","-","-","-","-","-"
"50ad09c584aea0f519fe76a3","Imprimerie De L'Etoile","ld Ste Anne","Tourouvre au Perche","61190","06 34 40 92 35","contact@etoile-imprimerie.fr","pro","-","-","Imprimerie et travaux graphiques",48.598865,0.691988,"-","-","-","-","-","-","-","-","-","-"
"510e763284aeea724eba7668","7 Publicité","14 bd Europe","Mamers","72600","02 43 34 88 67","commercial@septpublicite.fr","pro","http://www.septpublicite.fr","-","Imprimerie et travaux graphiques",48.357179,0.379411,"-","-","-","-","-","-","-","-","-","-"
"54480067e4b08e06931f9c37","Imprimerie D.R.C.","21 Bis r Château","Le Tremblay Omonville","27110","02 32 35 39 78","commercial1@drc.fr","pro","-","-","Imprimerie et travaux graphiques",49.12124,0.9172,"-","-","-","-","-","-","-","-","-","-"
"4d6c2a85fc692507a6850dd7","Informatic & Grafic SARL","309 r Jacquard","Evreux","27000","02 32 38 52 16","contact@ig27.net","pro","http://www.ig27.net","-","Imprimerie et travaux graphiques",49.001836,1.14357,"-","-","-","-","-","-","-","-","-","-"
"632d3b53bd928f0c27b669ab","Coussens Bureau 27","15 Allée des Bosquets","Caugé","27180","06 86 89 08 49","coussensjacqueline@gmail.com","non-pro","https://www.faire-part-normandie.fr/","-","Imprimerie et travaux graphiques",49.020807307,1.037407285,"-","-","-","-","-","-","-","-","-","-"
"56730b649191b056fb7b0925","Reprotechnique SCOP","393 r Jacques Monod","Evreux","27000","02 32 33 23 11","repro27@reprotechnique.com","pro","http://www.reprotechnique.com","-","Imprimerie et travaux graphiques",49.02308,1.180553,"-","-","-","-","-","-","-","-","-","-"
"6069d0f62d80711a718ec9b4","Ainsi Murmure La Terre","2 A r Chaudiette","Sylvains les Moulins","27240","07 64 45 93 33","ainsimurmurelaterre@gmail.com","non-pro","-","-","Imprimerie et travaux graphiques",48.882028,1.097384,"-","-","-","-","-","-","-","-","-","-"
"4d6d7e15b9eb2507b696cdc3","La Papeterie De Jeanne","1 pl République","Louviers","27400","02 32 40 20 17","contact@lapapeteriedejeanne.fr","pro","http://expressgraphicsarl.site-solocal.com","-","Imprimerie et travaux graphiques",49.213305,1.167191,"-","-","-","-","-","-","-","-","-","-"
"5beae9bc0351d130e6560257","Impact","rte Louviers","Marbeuf","27110","02 32 38 80 55","impact@impact-communication.fr","pro","http://www.impact-communication.fr","-","Imprimerie et travaux graphiques",49.147433316,0.964516494,"-","-","-","-","-","-","-","-","-","-"
"5beaf1320351d130e65614e2","Etiquettes Impression","39 rte Herqueville","Andé","27430","01 64 38 99 72","contact@etiquettes-impression.fr","pro","http://www.etiquettes-impression.fr","-","Imprimerie et travaux graphiques",49.234999019,1.248871707,"-","-","-","-","-","-","-","-","-","-"
"566090b19191b0103f11bc15","Graphic Ouest","52 r Principale","Rouperroux le Coquet","72110","02 43 24 21 09","contact@graphic-ouest.fr","pro","https://graphic-ouest.fr/","-","Imprimerie et travaux graphiques",48.22558,0.428821,"-","-","-","-","-","-","-","-","-","-"
"521d69ea84ae847e356e3053","Event Tex","63 Rue Isambard","Évreux","27000","06 28 79 59 11","event.tex@gmail.com","non-pro","http://www.eure-eventtex.com","-","Imprimerie et travaux graphiques",49.030194482,1.150239364,"-","-","-","-","-","-","-","-","-","-"
"50ad2c9084ae7287a21c7989","Interfas","Rue Charles Cros","Louviers","27400","02 32 25 53 53","sdc@interfas.fr","pro","http://www.interfas.fr","-","Imprimerie et travaux graphiques",49.230175715,1.173313144,"-","-","-","-","-","-","-","-","-","-"
"59fba4e50351d12e24b4060c","Signaletique Bridel","6 all Fritz Lang","Evreux","27000","02 32 38 64 55","roland.bridel@orange.fr","non-pro","-","-","Imprimerie et travaux graphiques",49.042294,1.130209,"-","-","-","-","-","-","-","-","-","-"
"53d2ba38e4b0cd9615256b83","Imprimerie Vert Village","150 r Jacqueline Auriol","Le Vieil Evreux","27930","02 32 31 14 06","imprimerie@vert-village.fr","pro","http://www.imprimerie-vertvillage.com","-","Imprimerie et travaux graphiques",49.014661,1.187641,"-","-","-","-","-","-","-","-","-","-"
"601fff8577af9e37caaeaa46","Imprim'28","11 r Fuye","Nogent le Rotrou","28400","09 62 57 80 30","-","-","-","-","Imprimerie et travaux graphiques",48.322896,0.811984,"-","-","-","-","-","-","-","-","-","-"
"50ad2eed84ae7287a21c8c24","Lohmann France","all Marronniers","Heudebouville","27400","02 32 09 23 23","social.media@lohmann-tapes.com","pro","http://www.lohmann-tapes.fr","-","Imprimerie et travaux graphiques",49.197243133,1.22586857,"-","-","-","-","-","-","-","-","-","-"
"5a1b78f90351d10f6d193dcc","Titos paint","20 r Maurice Vlaminck","Saint Rémy sur Avre","28380","02 36 69 59 73","titos28380@gmail.com","non-pro","http://www.titos-paint.fr","-","Imprimerie et travaux graphiques",48.756924871,1.247387104,"-","-","-","-","-","-","-","-","-","-"
"50ad9c4384ae15a06d95c082","Florilege Graphique","Les Bouleaux","Argenvilliers","28480","02 37 53 39 43","florilege.graphique@orange.fr","non-pro","-","-","Imprimerie et travaux graphiques",48.265107,0.965878,"-","-","-","-","-","-","-","-","-","-"
"54550198e4b0f26bb5958088","Technigraphic","rte Bellou","Saint Germain de la Coudre","61130","02 33 85 21 00","-","-","https://stf-imprimeries.fr","-","Imprimerie et travaux graphiques",48.279148299,0.599628534,"-","-","-","-","-","-","-","-","-","-"
"50ae58e284ae9be1483cd620","Eure Film Adhésifs","Rue du Coudray","Sylvains-les-Moulins","27240","02 32 34 52 34","contact@eurefilm.com","pro","http://www.eurefilm.com","-","Imprimerie et travaux graphiques",48.8801354,1.0971969,"-","-","-","-","-","-","-","-","-","-"
"5d96a97654c4c048c897cff6","Editinfo","24 r Fauville","Evreux","27000","02 32 62 53 54","contact@edit-info.com","pro","http://www.edit-info.com","-","Imprimerie et travaux graphiques",49.024780644,1.175243957,"-","-","-","-","-","-","-","-","-","-"
"58fc19e20351d13fea3bd5a6","Abioclean-shop-com","8 r St Lubin","Chassant","28480","02 18 88 55 77","abioclean@abioclean-shop.com","pro","http://abioclean-shop.com","-","Imprimerie et travaux graphiques",48.294884213,1.068559822,"-","-","-","-","-","-","-","-","-","-"
"51937a9784ae0fdc72b5b07a","Imprimerie Peau","La Paillerie","Berd'huis","61340","02 33 73 20 20","contact@imprimerie-peau.com","pro","http://imprimerie-peau.fr","-","Imprimerie et travaux graphiques",48.348129,0.745488,"-","-","-","-","-","-","-","-","-","-"
"5a61b86d0351d14489bcf8d7","AmaCom Communication","23 Rue René Lothon","Épégard","27110","06 22 18 71 04","david@amacom-communication.fr","pro","http://amacom-communication.fr","-","Imprimerie et travaux graphiques",49.178894238,0.863292109,"-","-","-","-","-","-","-","-","-","-"
"58bb88ad0351d13d56e32371","Décoh EURL","309 Rue Jacquard","Évreux","27000","02 32 33 41 25","decoh@decoh-publicite.fr","pro","https://www.decoh-publicite.fr","-","Imprimerie et travaux graphiques",49.00185094,1.13703272,"-","-","-","-","-","-","-","-","-","-"
"563553739191b07eb9db76b4","Levalleur Cédric","16 r Ferte","Brézolles","28270","02 37 48 38 14","-","-","-","-","Imprimerie et travaux graphiques",48.687857,1.07071,"-","-","-","-","-","-","-","-","-","-"
"643916914314796d2927b065","Nicolas Dambier","L'Hôtel Moisi","Belforêt-en-Perche","61130","09 67 34 31 37","-","-","-","-","Imprimerie et travaux graphiques",48.376756839,0.470681294,"-","-","-","-","-","-","-","-","-","-"
"5ad9bf410351d1247cdfa39b","Sasu Tito Deco","Pontillon","Rémalard-en-Perche","61110","06 13 21 47 09","-","-","-","-","Imprimerie et travaux graphiques",48.442768253,0.769544751,"-","-","-","-","-","-","-","-","-","-"
"58c14af70351d1318cbeab6e","Fr & Co","4 r Château","Longny les Villages","61290","09 51 17 23 14","francisco.freire@free.fr","non-pro","-","-","Imprimerie et travaux graphiques",48.530938,0.753515,"-","-","-","-","-","-","-","-","-","-"
"59a7e5c70351d1047ca7e7d3","Chateau Frédéric","16 Impasse du Bois Morin","Le Vieil-Évreux","27930","02 32 67 79 93","-","-","-","-","Imprimerie et travaux graphiques",48.996448512,1.221400931,"-","-","-","-","-","-","-","-","-","-"
"5a9940ae0351d10b74bb276c","Trap Louis","12 Rue de Beaubray","Nagel-Séez-Mesnil","27190","09 52 54 63 73","-","-","-","-","Imprimerie et travaux graphiques",48.92161599,0.935935445,"-","-","-","-","-","-","-","-","-","-"
"589be6390351d167ec4d56ce","Gonet Sylvère","340 ld Grand Cuisinet","Breteuil","27160","02 32 32 32 97","-","-","-","-","Imprimerie et travaux graphiques",48.765445,0.913062,"-","-","-","-","-","-","-","-","-","-"
"63cd0168a54daa14dc45a2ea","Souayah Abdélkader","7 r Noisetiers","Cierrey","27930","02 32 26 96 28","-","-","-","-","Imprimerie et travaux graphiques",49.001997791,1.254599791,"-","-","-","-","-","-","-","-","-","-"
"67970e8224c2e142a5486b98","Leflaec yann","828 Avenue du Général de Gaulle","Verneuil-d'Avre-et-d'Iton","27130","06 83 72 25 09","-","-","-","-","Imprimerie et travaux graphiques",48.739969664,0.951195906,"-","-","-","-","-","-","-","-","-","-"
"667f9683b0cc7364ceb2aa44","Les Creations De Michele","8 imp Glane","Prey","27220","02 32 31 34 52","-","-","-","-","Imprimerie et travaux graphiques",48.96000917,1.218440243,"-","-","-","-","-","-","-","-","-","-"
"667f9800b0cc7364ceb2b96e","A L'Eure Du Laser","24 Rue Sainte-Christine","Ferrières-Haut-Clocher","27190","09 74 76 32 75","-","-","-","-","Imprimerie et travaux graphiques",49.018629946,0.982817523,"-","-","-","-","-","-","-","-","-","-"
"65cd9fcd630e93455939c205","Naname Anne-Danielle","1 Bis bd Pasteur","Evreux","27000","01 46 23 87 51","-","-","http://adn.ultra-book.com","-","Imprimerie et travaux graphiques",49.024239982,1.156799666,"-","-","-","-","-","-","-","-","-","-"
"5d421c2254c4c0500c0d8c1e","Coralo","10 r Jacquard","Evreux","27000","-","-","-","-","-","Imprimerie et travaux graphiques",49.001963,1.141433,"-","-","-","-","-","-","-","-","-","-"
"5750450e0351d12122684fae","Leballais Fabienne","7 r Rochette","Evreux","27000","09 81 34 11 56","-","-","-","-","Imprimerie et travaux graphiques",49.027229,1.142667,"-","-","-","-","-","-","-","-","-","-"
"640125b4f903d612a9d492f1","H B Impressions","33 Rue du Quai","Louviers","27400","-","-","-","http://www.hbimpressions.fr","-","Imprimerie et travaux graphiques",49.214176856,1.170681618,"-","-","-","-","-","-","-","-","-","-"
"5b4638aa0351d141204454c0","Arts Graphiques Roto","Zone Industrielle","Berd'huis","61340","02 33 85 11 45","francoise.nicolas@agroto.fr","pro","http://www.agroto.fr","-","Imprimerie et travaux graphiques",48.345061,0.746887,"-","-","-","-","-","-","-","-","-","-"
"5d1d98000351d1661db1788a","Roderic Brochage","1 r Champtier de la Ferme","Champrond en Gâtine","28240","02 37 37 03 36","-","-","-","-","Imprimerie et travaux graphiques",48.401734902,1.069881683,"-","-","-","-","-","-","-","-","-","-"
"50ace24c84aec628abe7146b","Béroul Séri'Pub","13 Rue Gastelier","Le Mans","72100","02 43 24 21 39","sarlberoul@wanadoo.fr","non-pro","http://www.beroulseripub.fr","-","Imprimerie et travaux graphiques",47.996153004,0.194740951,5,5,1,"-","-","-","-","-","-","-"
"5beae9ee0351d130e65602db","Corep","20 av René Laennec","Le Mans","72000","02 43 87 78 98","lille.rihour@corep.fr","pro","http://www.corep.fr","-","Imprimerie et travaux graphiques",48.017198,0.161244,5,5,1,"-","-","-","-","-","-","-"
"6531ea07476038586a19467d","EProjets Lab","5 r Montoise","Le Mans","72000","06 95 89 96 29","contact@eprojetslab.fr","pro","https://eprojetslab.fr/home/","-","Imprimerie et travaux graphiques",48.007802,0.18896,5,5,2,"-","-","-","-","-","-","-"
"50adc8b384ae70fdb2b15730","Compo 72 Imprimerie","15 Rue du Fouillet","Le Mans","72100","02 43 16 15 14","contact@compo72.com","pro","http://www.compo72.com","-","Imprimerie et travaux graphiques",47.974091888,0.238261616,5,5,1,"-","-","-","-","-","-","-"
"512e581f84ae6338bfdb1d5f","LSI Infographie","13 r Jean François","Le Mans","72100","06 81 66 37 61","jean-pierre.fournier32@wanadoo.fr","non-pro","-","-","Imprimerie et travaux graphiques",47.962471146,0.19838682,5,5,3,"-","-","-","-","-","-","-"
"50aef9e584ae4ded722d61db","Galaxy","205 r Beaugé","Le Mans","72000","02 43 47 03 30","c.deis@galaxyimprimeurs.com","pro","http://www.galaxyimprimeurs.com","-","Imprimerie et travaux graphiques",48.014792,0.148496,"-","-","-","-","-","-","-","-","-","-"
"50ae4dbc84ae9be1483c87c8","Atelier Saint Luc","24 Rue de Carnac","Coulaines","72190","02 43 81 18 66","info@reliuresaintluc.com","pro","http://www.reliuresaintluc.com","-","Imprimerie et travaux graphiques",48.02563049,0.200182757,"-","-","-","-","-","-","-","-","-","-"
"51094eaf84ae6ceded07d5fb","Telex Helio SARL","2 r Frères Voisin","Le Mans","72000","02 43 24 87 44","direction@telexhelio.com","pro","-","-","Imprimerie et travaux graphiques",48.033854,0.175555,"-","-","-","-","-","-","-","-","-","-"
"510e755184aeea724eba7636","FJ Création","ld Bois des Cours","Sillé le Guillaume","72140","06 15 39 71 37","-","-","-","-","Imprimerie et travaux graphiques",48.169412,-0.149792,"-","-","-","-","-","-","-","-","-","-"
"50ad685c84aea7b535bdf138","Maine Impressions Continu","ld Chanteloup","Rouillon","72700","-","imp-mic@wanadoo.fr","non-pro","http://www.maine-impressions-continu.fr","-","Imprimerie et travaux graphiques",48.013446,0.149253,"-","-","-","-","-","-","-","-","-","-"
"50ace1d384aec628abe710ca","I C I Le Mans","20 av François Chancel","Le Mans","72000","02 43 87 52 87","icilemans@icilemans.com","pro","http://www.icilemans.com","-","Imprimerie et travaux graphiques",48.014096,0.198102,"-","-","-","-","-","-","-","-","-","-"
"50ace1e584aec628abe71139","Gravosign","67 Rue Albert Einstein","Le Mans","72100","06 07 55 49 57","contact@gravosign.com","pro","http://www.gravosign.com","-","Imprimerie et travaux graphiques",48.033003367,0.174230614,"-","-","-","-","-","-","-","-","-","-"
"50ad682984aea7b535bdf05f","Publi24","182 av Panorama","Le Mans","72100","02 43 41 44 14","enseigne@publi24.fr","pro","http://www.publi24.fr","-","Imprimerie et travaux graphiques",47.96025009,0.209554876,"-","-","-","-","-","-","-","-","-","-"
"5beb098f0351d130e6564d21","Imprimerie Berger","23 av Georges Auric","Rouillon","72700","02 43 14 00 20","-","-","-","-","Imprimerie et travaux graphiques",48.012778,0.150415,"-","-","-","-","-","-","-","-","-","-"
"510be72784ae4f5692e036d4","Imprimerie De Pontlieue","6 Bis r Pied Sec","Le Mans","72100","02 43 85 77 46","imp.pontlieue@wanadoo.fr","non-pro","-","-","Imprimerie et travaux graphiques",47.9826,0.206593,"-","-","-","-","-","-","-","-","-","-"
"4d6d827fb9eb2507c9b9cdc3","Copy Plans Manceau Copy","38 av Gén Leclerc","Le Mans","72000","09 65 39 80 72","contact@manceaucopy.fr","pro","-","-","Imprimerie et travaux graphiques",47.999146642,0.195620459,"-","-","-","-","-","-","-","-","-","-"
"50aefbea84ae4ded722d6ea9","Image'in","Rue de Bonnétable","Le Mans","72100","02 43 82 45 00","imageinkec@aol.com","non-pro","https://kodakexpress72.com/","-","Imprimerie et travaux graphiques",48.019614946,0.223483546,"-","-","-","-","-","-","-","-","-","-"
"654eedf99d82c26fdfd7d6ff","K'Prim Impressions","47 r Maine","Le Mans","72100","02 43 39 97 17","contact@kprim-impressions.fr","pro","-","-","Imprimerie et travaux graphiques",47.969783,0.199207,"-","-","-","-","-","-","-","-","-","-"
"50ad683d84aea7b535bdf081","Numéri'Scann 24","3 Avenue René Laennec","Le Mans","72000","02 43 82 72 00","direction@numeriscann.com","pro","http://www.imprimerie-numeriscann.fr","-","Imprimerie et travaux graphiques",48.019469482,0.161515069,"-","-","-","-","-","-","-","-","-","-"
"59d0f0be0351d16b3377427e","Fun'Cré@","23 Rue Lenoir","Le Mans","72100","02 53 42 53 58","-","-","-","-","Imprimerie et travaux graphiques",48.000676268,0.208478254,"-","-","-","-","-","-","-","-","-","-"
"5beae0750351d130e655ebec","Mail Boxes Etc. - Centre MBE 0027","16 Rue du Docteur Leroy","Le Mans","72100","02 43 39 66 44","-","-","http://www.mbefrance.fr/0027","-","Imprimerie et travaux graphiques",48.002775673,0.195928192,"-","-","-","-","-","-","-","-","-","-"
"5ab8d46b0351d14d42d5c3f0","ProGKom","2 r Point du Jour","Moncé en Belin","72230","02 43 39 38 10","contact@progkom.fr","pro","http://www.progkom.fr","-","Imprimerie et travaux graphiques",47.897338623,0.191074076,"-","-","-","-","-","-","-","-","-","-"
"5d197a020351d133c69bde69","Services Minute","La Raterie","Allonnes","72700","02 43 80 38 41","servicesminute.7202@orange.fr","non-pro","http://europeservices.fr","-","Imprimerie et travaux graphiques",47.97264,0.14159,"-","-","-","-","-","-","-","-","-","-"
"512c19bf84aee0d11730f714","Amega Signaletiques","10 Rue de la Sapinière","Changé","72560","02 43 40 17 61","bienvenue@amegasignaletiques.fr","pro","https://www.amegasignaletiques.fr/","-","Imprimerie et travaux graphiques",47.975484423,0.269487928,"-","-","-","-","-","-","-","-","-","-"
"632fe81254c83d1653a5c4d2","Perluette Graphic","2056 rte Guierche","Montbizot","72380","06 30 57 41 24","contact@perluette-graphic.com","pro","http://perluette-graphic.com","-","Imprimerie et travaux graphiques",48.143750111,0.185673286,"-","-","-","-","-","-","-","-","-","-"
"6678edd6d5f84354c425e1ba","K'Prim Impressions","48 av Bollée","Le Mans","72000","02 43 39 97 19","contact@kprim-impressions.fr","pro","https://www.kprim-impressions.fr/","-","Imprimerie et travaux graphiques",48.011491,0.155418,"-","-","-","-","-","-","-","-","-","-"
"50acc73c84aedc8b8a09fd60","Appli Couleurs","12 r Champs","Changé","72560","02 43 75 41 80","applicouleurs@wanadoo.fr","non-pro","http://www.applicouleurs.com","-","Imprimerie et travaux graphiques",47.975978363,0.262591887,"-","-","-","-","-","-","-","-","-","-"
"50ae25ff84ae29b8a1edc43f","ITF Imprimeurs","1 r Pierre Mendès France","Mulsanne","72230","02 43 42 00 38","infos@itf-imprimeurs.fr","pro","https://www.itf-imprimeurs.fr/","-","Imprimerie et travaux graphiques",47.910138733,0.243737193,"-","-","-","-","-","-","-","-","-","-"
"50aefc3184ae4ded722d6fb7","L'Arbre aux Papiers","47 r Maine","Le Mans","72100","02 43 85 31 20","-","-","http://www.l-arbre-aux-papiers.com","-","Imprimerie et travaux graphiques",47.969479255,0.199012969,"-","-","-","-","-","-","-","-","-","-"
"5ce8d5a30351d14d6054374d","Tessé Impressions","r Prieuré","Chantenay Villedieu","72430","02 43 42 63 84","e.tesse@tesseimpressions.fr","pro","http://www.tesseimpressions.fr","-","Imprimerie et travaux graphiques",47.916857,-0.170695,"-","-","-","-","-","-","-","-","-","-"
"510a7f5984aeeccdab357ba3","Neoa","Champ Fleuri","Trangé","72650","06 28 83 16 95","-","-","-","-","Imprimerie et travaux graphiques",48.0173024,0.1104652,"-","-","-","-","-","-","-","-","-","-"
"50ae39bd84ae7052f563190c","Créavisu","1 bd St Germain","Coulaines","72190","06 70 67 60 46","-","-","-","-","Imprimerie et travaux graphiques",48.024953,0.2006,"-","-","-","-","-","-","-","-","-","-"
"55982443e4b086a7854b0e90","Compagnie Europeenne De Cartonnages","56 r Pierre Martin","Le Mans","72100","02 43 50 13 30","contact@asv-packaging.com","pro","http://asv-packaging.com","-","Imprimerie et travaux graphiques",47.970802085,0.172064318,"-","-","-","-","-","-","-","-","-","-"
"5cf997ef0351d1427bf443fc","Au P'tit Comptoir","13 r Claude Blondeau","Le Mans","72000","07 84 93 12 25","contact@distrirolls.com","pro","-","-","Imprimerie et travaux graphiques",48.006599299,0.198808689,"-","-","-","-","-","-","-","-","-","-"
"591839030351d13fe391adfe","Ligaud Gérard","2 ham Alsace","Allonnes","72700","06 77 45 03 83","-","-","-","-","Imprimerie et travaux graphiques",47.955636037,0.16948722,"-","-","-","-","-","-","-","-","-","-"
"62452bbcccd30e06fba97744","Loco Deco","247 av Nationale","Arnage","72230","02 43 25 00 23","-","-","-","-","Imprimerie et travaux graphiques",47.91997,0.181606,"-","-","-","-","-","-","-","-","-","-"
"5a58abf80351d13be4cd3f10","C'graphic","ld Taille","Bonnétable","72110","06 77 12 72 37","vailtony@wanadoo.fr","non-pro","-","-","Imprimerie et travaux graphiques",48.181563,0.415357,"-","-","-","-","-","-","-","-","-","-"
"60c9787422e6f13abc204dcf","Numéri'Scann 37","37 Grande Rue","Saint Calais","72120","06 87 90 51 76","-","-","-","-","Imprimerie et travaux graphiques",47.902295794,0.647193362,"-","-","-","-","-","-","-","-","-","-"
"667e392b73933a1cfbdccfbd","Julien Blanchard","7 Rue du Colonel Coutelle","Le Mans","72100","06 64 27 24 85","-","-","-","-","Imprimerie et travaux graphiques",48.01224199,0.191490525,"-","-","-","-","-","-","-","-","-","-"
"64fe82d31d9fe97a7da32a2b","Quickparts","Allée des Petites Forges","Joué-l'Abbé","72380","02 43 51 20 30","quote.fr@quickparts.com","pro","https://quickparts.com/fr/contacter-quickparts/","-","Imprimerie et travaux graphiques",48.094208984,0.239256245,"-","-","-","-","-","-","-","-","-","-"
"6438a8974314796d29279e80","Unicornis","2 les Couvardieres","Saint Agil","41170","06 28 52 21 18","-","-","-","-","Imprimerie et travaux graphiques",48.045526,0.908721,"-","-","-","-","-","-","-","-","-","-"
"5f9387046448be0844fce66a","Monique Metayer","27 Rue des Bons Enfants","Le Mans","72100","02 43 76 63 97","-","-","-","-","Imprimerie et travaux graphiques",48.003108072,0.208241843,"-","-","-","-","-","-","-","-","-","-"
"548168f8e4b040868f2c78fd","Emery Christine","15 Rue du Haut Pignon","La Chapelle-Saint-Aubin","72650","02 43 88 56 55","-","-","-","-","Imprimerie et travaux graphiques",48.03811563,0.157460084,"-","-","-","-","-","-","-","-","-","-"
"567c08c69191b07d625c7dda","Lambert Ludivine","10 r Ifs","Le Mans","72000","09 54 95 97 22","-","-","-","-","Imprimerie et travaux graphiques",48.00085,0.203657,"-","-","-","-","-","-","-","-","-","-"
"510e80db84aeea724eba7988","L'Echo De Vibraye","10 av Gare","Vibraye","72320","02 43 93 62 15","admgrave@orange.fr","non-pro","http://imprimerie-grave-72.fr","-","Imprimerie et travaux graphiques",48.060211769,0.734470911,"-","-","-","-","-","-","-","-","-","-"
"5fc85e2a7cc519109fec97d7","Manche Courte Sarl","7 Rue de la Paille","Le Mans","72100","02 53 76 25 62","ateliermanchecourte@gmail.com","non-pro","http://www.manche-courte.fr","-","Imprimerie et travaux graphiques",48.005107765,0.198829554,"-","-","-","-","-","-","-","-","-","-"
"53c813f6e4b05c124b452a12","Cemjika Pao","10 Rue de la Bascule","Le Mans","72100","09 66 90 54 74","-","-","http://www.cemjika.com","-","Imprimerie et travaux graphiques",48.001578646,0.188055866,"-","-","-","-","-","-","-","-","-","-"
"50ad683f84aea7b535bdf08b","Imprimerie Crès","zi Taille","Bonnétable","72110","09 67 26 31 92","impr.cres@wanadoo.fr","non-pro","http://www.imprimeriecres.fr","-","Imprimerie et travaux graphiques",48.181339,0.412408,"-","-","-","-","-","-","-","-","-","-"
"510a880384aeeccdab357d8c","I . P . L Imprimeur en Pays de la Loire","51 r Paris","Connerré","72160","02 43 89 70 79","ipl.bruno@free.fr","non-pro","http://iplbruno.wixsite.com/72-imprimerie-ipl","-","Imprimerie et travaux graphiques",48.061209,0.497808,"-","-","-","-","-","-","-","-","-","-"
"50ad6b5f84aedec6f6c032e4","Mpo M'pack","11 Rue de Pied Sec","Le Mans","72100","02 43 78 20 40","-","-","https://www.mpo-international.com","-","Imprimerie et travaux graphiques",47.984222383,0.202145786,"-","-","-","-","-","-","-","-","-","-"
"5447b95ee4b08e06931f56e2","S.f.e.a","21 r Tuilerie","Cherré","72400","02 43 71 08 84","-","-","http://www.allianceetiquettes.com/imprimerie-sfea","-","Imprimerie et travaux graphiques",48.168597,0.67221,"-","-","-","-","-","-","-","-","-","-"
"62ae9e2bfceddb602f4a8374","Yaka3d","7 Bis r Solférino","Elbeuf","76500","07 49 45 00 15","contact@yaka3d.fr","pro","http://www.yaka3d.fr","-","Imprimerie et travaux graphiques",49.289264,1.010968,5,5,1,"-","-","-","-","-","-","-"
"50accbb384aedc8b8a0a1d79","Imprimerie Alain","18 r Victor Hugo","Caudebec lès Elbeuf","76320","02 35 78 10 01","imprimeriealain@wanadoo.fr","non-pro","http://www.imprimeriealain.com","-","Imprimerie et travaux graphiques",49.283042133,1.013037581,"-","-","-","-","-","-","-","-","-","-"
"5f9bec5876d0477f004ab504","L'Atelier Graphique","13 r Europe","Le Bosc Roger en Roumois","27670","02 35 77 55 98","contact@atelier-graphique.eu","pro","http://www.atelier-graphique.eu","-","Imprimerie et travaux graphiques",49.297514,0.912948,"-","-","-","-","-","-","-","-","-","-"
"50ae119584ae753f399e57fb","Imprimerie Repro Service IRS","530 r Bourgtheroulde","Le Bosc Roger en Roumois","27670","02 35 77 52 31","contact@imprimerie-irs.com","pro","http://www.imprimerie-irs.com","-","Imprimerie et travaux graphiques",49.297563,0.912905,"-","-","-","-","-","-","-","-","-","-"
"50ace5e084ae9c6b733fcba1","Seine Impressions","6 r Lemercier","Caudebec lès Elbeuf","76320","-","magnan@seinimp.com","pro","-","-","Imprimerie et travaux graphiques",49.279974598,1.010982541,"-","-","-","-","-","-","-","-","-","-"
"50aed93b84ae124c3177edce","Agraf'Maq' SARL","4 Rue de Verdun","Saint-Aubin-lès-Elbeuf","76410","02 35 37 84 18","agrafmaq@orange.fr","non-pro","https://www.printrollup.fr","-","Imprimerie et travaux graphiques",49.303424368,1.011396006,"-","-","-","-","-","-","-","-","-","-"
"5233d3f184ae79166d831111","Imprimerie Delatre Et Fils","Chemin de l'Exploitation","Caudebec-lès-Elbeuf","76320","02 35 78 85 30","-","-","-","-","Imprimerie et travaux graphiques",49.2906275,1.0337036,"-","-","-","-","-","-","-","-","-","-"
"55735678e4b0a07ebcc8b9c0","B I E","Allée Romain Rolland","Saint-Aubin-lès-Elbeuf","76410","02 35 78 41 62","-","-","-","-","Imprimerie et travaux graphiques",49.305071068,1.039636664,"-","-","-","-","-","-","-","-","-","-"
"50ad73e384aedec6f6c07596","Helcet","6 Allée Romain Rolland","Saint-Aubin-lès-Elbeuf","76410","02 35 81 22 77","-","-","-","-","Imprimerie et travaux graphiques",49.305631107,1.039299409,"-","-","-","-","-","-","-","-","-","-"
"510e2aea84aec0fd8f43e909","Comptoir Des Adhésifs Et Dérivés","9 r Vincent Van Gogh","Montivilliers","76290","02 35 25 81 60","-","-","http://www.groupe-adetem.fr","-","Imprimerie et travaux graphiques",49.553736,0.166828,"-","-","-","-","-","-","-","-","-","-"
"532679f7e4b04129c76bc834","Autrecom EURL","8 rte Ecole Maternelle","Saint Jean de la Neuville","76210","09 62 27 74 34","contact@autrecom.fr","pro","http://autrecom.fr","-","Imprimerie et travaux graphiques",49.575554,0.423399,"-","-","-","-","-","-","-","-","-","-"
"50ace66484ae9c6b733fcf31","Ferric Ets","35 rle Papavoine","Bolbec","76210","02 35 31 00 98","imp.ferric@wanadoo.fr","non-pro","-","-","Imprimerie et travaux graphiques",49.572207,0.471382,"-","-","-","-","-","-","-","-","-","-"